{
  "version": 0.6,
  "generator": "Overpass API 0.7.62.7 375dc00a",
  "osm3s": {
    "timestamp_osm_base": "2025-07-10T04:02:16Z",
    "copyright": "The data included in this document is from www.openstreetmap.org. The data is made available under ODbL."
  },
  "elements": [

{
  "type": "node",
  "id": 1717348091,
  "lat": 34.6993474,
  "lon": 135.4953114,
  "timestamp": "2021-06-29T17:53:20Z",
  "version": 4,
  "changeset": 107163569,
  "user": "Yuxian",
  "uid": 10084645,
  "tags": {
    "brand": "大黒屋",
    "brand:en": "Daikokuya",
    "brand:ja": "大黒屋",
    "brand:wikidata": "Q11442068",
    "brand:wikipedia": "ja:大黒屋 (チケット)",
    "name": "大黒屋",
    "name:en": "Daikokuya",
    "name:ja": "大黒屋",
    "shop": "pawnbroker"
  }
},
{
  "type": "node",
  "id": 1734162900,
  "lat": 34.7009952,
  "lon": 135.4987000,
  "timestamp": "2025-05-27T13:36:48Z",
  "version": 7,
  "changeset": 166827752,
  "user": "Rakkka",
  "uid": 4954428,
  "tags": {
    "level": "5",
    "name": "梅田ロフト",
    "name:en": "Umeda Loft",
    "name:ko": "우메다 로프트",
    "opening_hours": "Mo-Su 10:00-20:00",
    "shop": "variety_store",
    "source": "Knowledge",
    "website": "http://loft.co.jp",
    "wheelchair": "yes"
  }
},
{
  "type": "node",
  "id": 1740967141,
  "lat": 34.7038986,
  "lon": 135.5011833,
  "timestamp": "2023-07-26T22:13:13Z",
  "version": 14,
  "changeset": 139059951,
  "user": "unnerving_duck",
  "uid": 19392124,
  "tags": {
    "brand": "7-ELEVEN",
    "brand:en": "7-ELEVEN",
    "brand:ja": "セブン-イレブン",
    "brand:wikidata": "Q259340",
    "brand:wikipedia": "en:7-Eleven",
    "name": "セブン-イレブン",
    "name:en": "7-Eleven",
    "name:ja": "セブン-イレブン",
    "name:ja_rm": "Sebun Irebun",
    "name:ko": "세븐일레븐",
    "official_name:en": "Seven-Eleven",
    "shop": "convenience",
    "source": "Knowledge",
    "wheelchair": "no",
    "wheelchair:description": "段差あり"
  }
},
{
  "type": "node",
  "id": 1740969658,
  "lat": 34.7019921,
  "lon": 135.4967271,
  "timestamp": "2025-01-26T12:04:01Z",
  "version": 14,
  "changeset": 161777347,
  "user": "setokynet",
  "uid": 21931672,
  "tags": {
    "branch": "梅田店",
    "branch:en": "Umeda",
    "brand": "大丸",
    "level": "-2;-1;1;2;3;4;5;6;7;8;9;10;11;12;13;14;15",
    "name": "大丸",
    "name:en": "Daimaru",
    "name:ja": "大丸",
    "name:ja_rm": "Daimaru",
    "name:zh": "大丸百货",
    "opening_hours": "Mo-Th 10:00-20:30; Fr-Sa 10:00-21:00; Su 10:00-20:30",
    "phone": "+81 6 6343 1231",
    "shop": "department_store",
    "website": "https://www.daimaru.co.jp/umedamise/",
    "wheelchair": "limited",
    "wikidata": "Q3012112",
    "wikipedia": "ja:大丸"
  }
},
{
  "type": "node",
  "id": 1740972028,
  "lat": 34.6986323,
  "lon": 135.4959119,
  "timestamp": "2025-05-19T01:42:33Z",
  "version": 6,
  "changeset": 166453311,
  "user": "CR86",
  "uid": 1879503,
  "tags": {
    "brand": "LAWSON",
    "brand:en": "LAWSON",
    "brand:ja": "ローソン",
    "brand:wikidata": "Q1557223",
    "brand:wikipedia": "ja:ローソン",
    "name": "ローソン",
    "name:en": "Lawson",
    "name:ja": "ローソン",
    "name:ja_rm": "Rōson",
    "name:ko": "로손",
    "shop": "convenience",
    "source": "Knowledge"
  }
},
{
  "type": "node",
  "id": 1740972029,
  "lat": 34.6996832,
  "lon": 135.4992725,
  "timestamp": "2025-05-19T01:42:33Z",
  "version": 6,
  "changeset": 166453311,
  "user": "CR86",
  "uid": 1879503,
  "tags": {
    "atm": "yes",
    "branch": "大阪駅前第四ビル店",
    "brand": "FamilyMart",
    "brand:en": "FamilyMart",
    "brand:ja": "ファミリーマート",
    "brand:wikidata": "Q11247682",
    "brand:wikipedia": "en:FamilyMart",
    "level": "-2",
    "name": "ファミリーマート",
    "name:en": "FamilyMart",
    "name:ja": "ファミリーマート",
    "name:ja_rm": "Famirī Mato",
    "opening_hours": "Mo-Su 07:00-23:00",
    "shop": "convenience",
    "source": "Knowledge"
  }
},
{
  "type": "node",
  "id": 1740977943,
  "lat": 34.6992841,
  "lon": 135.4954113,
  "timestamp": "2025-05-19T01:42:33Z",
  "version": 7,
  "changeset": 166453311,
  "user": "CR86",
  "uid": 1879503,
  "tags": {
    "branch": "西梅田店",
    "brand": "FamilyMart",
    "brand:en": "FamilyMart",
    "brand:ja": "ファミリーマート",
    "brand:wikidata": "Q11247682",
    "brand:wikipedia": "en:FamilyMart",
    "name": "ファミリーマート",
    "name:en": "FamilyMart",
    "name:ja": "ファミリーマート",
    "name:ja_rm": "Famirī Mato",
    "opening_hours": "24/7",
    "shop": "convenience",
    "source": "survey",
    "wheelchair": "yes"
  }
},
{
  "type": "node",
  "id": 1740977945,
  "lat": 34.6987902,
  "lon": 135.4951500,
  "timestamp": "2025-05-19T01:42:33Z",
  "version": 4,
  "changeset": 166453311,
  "user": "CR86",
  "uid": 1879503,
  "tags": {
    "brand": "FamilyMart",
    "brand:en": "FamilyMart",
    "brand:ja": "ファミリーマート",
    "brand:wikidata": "Q11247682",
    "brand:wikipedia": "en:FamilyMart",
    "name": "ファミリーマート",
    "name:en": "FamilyMart",
    "name:ja": "ファミリーマート",
    "name:ja_rm": "Famirī Mato",
    "shop": "convenience",
    "source": "Knowledge"
  }
},
{
  "type": "node",
  "id": 1741177026,
  "lat": 34.6984379,
  "lon": 135.5013445,
  "timestamp": "2025-05-19T01:42:33Z",
  "version": 5,
  "changeset": 166453311,
  "user": "CR86",
  "uid": 1879503,
  "tags": {
    "brand": "FamilyMart",
    "brand:en": "FamilyMart",
    "brand:ja": "ファミリーマート",
    "brand:wikidata": "Q11247682",
    "brand:wikipedia": "en:FamilyMart",
    "name": "ファミリーマート",
    "name:en": "FamilyMart",
    "name:ja": "ファミリーマート",
    "name:ja_rm": "Famirī Mato",
    "shop": "convenience",
    "source": "Survey"
  }
},
{
  "type": "node",
  "id": 1800200166,
  "lat": 34.6980611,
  "lon": 135.4977007,
  "timestamp": "2025-05-19T01:42:33Z",
  "version": 7,
  "changeset": 166453311,
  "user": "CR86",
  "uid": 1879503,
  "tags": {
    "brand": "FamilyMart",
    "brand:en": "FamilyMart",
    "brand:ja": "ファミリーマート",
    "brand:wikidata": "Q11247682",
    "brand:wikipedia": "en:FamilyMart",
    "name": "ファミリーマート",
    "name:en": "FamilyMart",
    "name:ja": "ファミリーマート",
    "name:ja_rm": "Famirī Mato",
    "shop": "convenience",
    "source": "Bing,2008-03"
  }
},
{
  "type": "node",
  "id": 1906149518,
  "lat": 34.7039829,
  "lon": 135.5019700,
  "timestamp": "2025-05-19T01:42:33Z",
  "version": 5,
  "changeset": 166453311,
  "user": "CR86",
  "uid": 1879503,
  "tags": {
    "brand": "FamilyMart",
    "brand:en": "FamilyMart",
    "brand:ja": "ファミリーマート",
    "brand:wikidata": "Q11247682",
    "brand:wikipedia": "en:FamilyMart",
    "name": "ファミリーマート",
    "name:en": "FamilyMart",
    "name:ja": "ファミリーマート",
    "name:ja_rm": "Famirī Mato",
    "opening_hours": "24/7",
    "shop": "convenience",
    "source": "Knowledge"
  }
},
{
  "type": "node",
  "id": 1915020686,
  "lat": 34.6995054,
  "lon": 135.5008641,
  "timestamp": "2023-09-19T08:52:17Z",
  "version": 5,
  "changeset": 141458037,
  "user": "K_Sakanoshita",
  "uid": 389520,
  "tags": {
    "brand": "Daily YAMAZAKI",
    "brand:en": "Daily YAMAZAKI",
    "brand:ja": "デイリーヤマザキ",
    "brand:wikidata": "Q5209392",
    "brand:wikipedia": "en:Daily Yamazaki",
    "check_date": "2023-09-19",
    "level": "0",
    "name": "デイリーヤマザキ",
    "name:en": "Daily Yamazaki",
    "name:ja": "デイリーヤマザキ",
    "shop": "convenience",
    "source": "Knowledge"
  }
},
{
  "type": "node",
  "id": 1915021503,
  "lat": 34.6996683,
  "lon": 135.5003977,
  "timestamp": "2024-10-28T10:19:10Z",
  "version": 5,
  "changeset": 158448608,
  "user": "K_Sakanoshita",
  "uid": 389520,
  "tags": {
    "brand": "LAWSON",
    "brand:en": "LAWSON",
    "brand:ja": "ローソン",
    "brand:wikidata": "Q1557223",
    "check_date": "2024-10-28",
    "name": "ローソン",
    "name:en": "Lawson",
    "name:ja": "ローソン",
    "opening_hours": "24/7",
    "shop": "convenience"
  }
},
{
  "type": "node",
  "id": 1915021507,
  "lat": 34.6988573,
  "lon": 135.5016848,
  "timestamp": "2025-01-16T08:19:39Z",
  "version": 6,
  "changeset": 161407651,
  "user": "setokynet",
  "uid": 21931672,
  "tags": {
    "branch": "曽根崎二丁目",
    "brand": "LAWSON",
    "brand:en": "LAWSON",
    "brand:ja": "ローソン",
    "brand:wikidata": "Q1557223",
    "brand:wikipedia": "ja:ローソン",
    "name": "ローソン",
    "name:en": "Lawson",
    "name:ja": "ローソン",
    "name:ko": "로손",
    "opening_hours": "24/7",
    "shop": "convenience",
    "source": "Knowledge"
  }
},
{
  "type": "node",
  "id": 1976144451,
  "lat": 34.6981186,
  "lon": 135.4966391,
  "timestamp": "2025-05-19T01:42:33Z",
  "version": 5,
  "changeset": 166453311,
  "user": "CR86",
  "uid": 1879503,
  "tags": {
    "brand": "FamilyMart",
    "brand:en": "FamilyMart",
    "brand:ja": "ファミリーマート",
    "brand:wikidata": "Q11247682",
    "brand:wikipedia": "en:FamilyMart",
    "name": "ファミリーマート",
    "name:en": "FamilyMart",
    "name:ja": "ファミリーマート",
    "name:ja_rm": "Famirī Mato",
    "opening_hours": "24/7",
    "shop": "convenience",
    "source": "Bing,2008-03"
  }
},
{
  "type": "node",
  "id": 2088085392,
  "lat": 34.7033498,
  "lon": 135.5010109,
  "timestamp": "2025-02-26T12:32:28Z",
  "version": 8,
  "changeset": 162969762,
  "user": "Obanazawa Kuri",
  "uid": 17453820,
  "tags": {
    "branch": "梅田本店",
    "brand": "ドン・キホーテ",
    "brand:en": "Don Quijote",
    "brand:ja": "ドン・キホーテ",
    "brand:wikidata": "Q1185381",
    "level": "0;1;2",
    "name": "ドン・キホーテ",
    "name:en": "Don Quijote",
    "name:es": "Don Quijote",
    "name:ja": "ドン・キホーテ",
    "name:pt": "Don Quixote",
    "name:vi": "trung tâm thương mại đôn ki hô tê",
    "phone": "+81 570-046-411",
    "shop": "variety_store",
    "short_name": "ドンキ",
    "short_name:en": "Donki",
    "short_name:ja": "ドンキ",
    "wheelchair": "yes",
    "wheelchair:description": "車椅子用トイレあり"
  }
},
{
  "type": "node",
  "id": 2314355694,
  "lat": 34.6985437,
  "lon": 135.4984956,
  "timestamp": "2025-05-19T01:42:33Z",
  "version": 6,
  "changeset": 166453311,
  "user": "CR86",
  "uid": 1879503,
  "tags": {
    "brand": "FamilyMart",
    "brand:en": "FamilyMart",
    "brand:ja": "ファミリーマート",
    "brand:wikidata": "Q11247682",
    "brand:wikipedia": "en:FamilyMart",
    "level": "0",
    "name": "ファミリーマート",
    "name:en": "FamilyMart",
    "name:ja": "ファミリーマート",
    "name:ja_rm": "Famirī Mato",
    "opening_hours": "24/7",
    "shop": "convenience"
  }
},
{
  "type": "node",
  "id": 2330456391,
  "lat": 34.7029514,
  "lon": 135.5004283,
  "timestamp": "2023-12-04T14:43:45Z",
  "version": 6,
  "changeset": 144758185,
  "user": "okadatsuneo",
  "uid": 10163840,
  "tags": {
    "brand": "Y!mobile",
    "brand:en": "Y!mobile",
    "brand:ja": "ワイモバイル",
    "brand:wikidata": "Q18455742",
    "brand:wikipedia": "ja:ワイモバイル",
    "level": "0",
    "name": "ワイモバイル",
    "name:en": "Y!mobile",
    "name:ja": "ワイモバイル",
    "shop": "mobile_phone"
  }
},
{
  "type": "node",
  "id": 2330462639,
  "lat": 34.7033630,
  "lon": 135.5015020,
  "timestamp": "2023-12-05T08:01:48Z",
  "version": 2,
  "changeset": 144781359,
  "user": "okadatsuneo",
  "uid": 10163840,
  "tags": {
    "check_date": "2023-12-01",
    "male": "yes",
    "name": "男流散髪屋",
    "shop": "hairdresser"
  }
},
{
  "type": "node",
  "id": 2448097461,
  "lat": 34.6991635,
  "lon": 135.4995473,
  "timestamp": "2020-07-25T02:09:58Z",
  "version": 3,
  "changeset": 88481372,
  "user": "fuk",
  "uid": 550066,
  "tags": {
    "brand": "ドコモショップ",
    "brand:en": "DoCoMo Shop",
    "brand:ja": "ドコモショップ",
    "brand:wikidata": "Q853958",
    "brand:wikipedia": "ja:NTTドコモ",
    "level": "0",
    "name": "ドコモショップ",
    "name:en": "DoCoMo Shop",
    "name:ja": "ドコモショップ",
    "shop": "mobile_phone",
    "source": "Bing; survey"
  }
},
{
  "type": "node",
  "id": 2808846191,
  "lat": 34.7027827,
  "lon": 135.4947318,
  "timestamp": "2025-06-15T06:41:36Z",
  "version": 3,
  "changeset": 167637700,
  "user": "しげ坊",
  "uid": 8455290,
  "tags": {
    "name": "大阪バスチケットセンター",
    "name:en": "Highway Bus Ticket Center",
    "operator": "西日本ジェイアールバス",
    "payment:cash": "yes",
    "payment:contactless": "yes",
    "payment:credit_cards": "yes",
    "shop": "ticket"
  }
},
{
  "type": "node",
  "id": 3254686661,
  "lat": 34.6980157,
  "lon": 135.4945499,
  "timestamp": "2025-05-19T01:42:33Z",
  "version": 10,
  "changeset": 166453311,
  "user": "CR86",
  "uid": 1879503,
  "tags": {
    "brand": "7-ELEVEN",
    "brand:en": "7-ELEVEN",
    "brand:ja": "セブン-イレブン",
    "brand:wikidata": "Q259340",
    "brand:wikipedia": "en:7-Eleven",
    "name": "セブン-イレブン",
    "name:en": "7-Eleven",
    "name:ja": "セブン-イレブン",
    "name:ja-Latn": "Sebun Irebun",
    "name:ko": "세븐일레븐",
    "official_name:en": "Seven-Eleven",
    "opening_hours": "24/7",
    "shop": "convenience",
    "toilets:wheelchair": "no",
    "wheelchair": "no"
  }
},
{
  "type": "node",
  "id": 3668364122,
  "lat": 34.7006974,
  "lon": 135.4983488,
  "timestamp": "2023-07-23T08:33:02Z",
  "version": 5,
  "changeset": 138883364,
  "user": "okadatsuneo",
  "uid": 10163840,
  "tags": {
    "addr:city": "大阪市",
    "addr:housenumber": "12-6",
    "addr:neighbourhood": "梅田一丁目",
    "name": "MHL.",
    "shop": "clothes"
  }
},
{
  "type": "node",
  "id": 3708753163,
  "lat": 34.6992254,
  "lon": 135.5017065,
  "timestamp": "2023-10-30T06:19:58Z",
  "version": 4,
  "changeset": 143345573,
  "user": "b-jazz-bot",
  "uid": 9451067,
  "tags": {
    "name": "ウエムラサイクルパーツ",
    "name:en": "Uemura Cycle Parts",
    "opening_hours": "Mo-Sa 11:00-20:30; Su 11:00-20:00",
    "phone": "+81 6-7711-4402",
    "shop": "bicycle",
    "source": "Bing; survey",
    "website": "https://uemura-cycle.com/"
  }
},
{
  "type": "node",
  "id": 4328301119,
  "lat": 34.7019067,
  "lon": 135.4964453,
  "timestamp": "2025-07-05T00:58:51Z",
  "version": 8,
  "changeset": 168505900,
  "user": "gc27",
  "uid": 7130304,
  "tags": {
    "addr:block_number": "1",
    "addr:city": "大阪市",
    "addr:country": "JP",
    "addr:housename": "大丸梅田店",
    "addr:housenumber": "3",
    "addr:neighbourhood": "梅田三丁目",
    "addr:postcode": "530-8202",
    "addr:province": "大阪府",
    "addr:suburb": "北区",
    "branch": "オーサカ",
    "branch:en": "Osaka",
    "brand": "ポケモンセンター",
    "brand:en": "Pokémon Center",
    "brand:ja": "ポケモンセンター",
    "brand:wikidata": "Q89673816",
    "level": "13",
    "name": "ポケモンセンター",
    "name:en": "Pokémon Center",
    "name:ja": "ポケモンセンター",
    "name:zh": "神奇寶貝中心",
    "opening_hours": "10:00-20:00",
    "phone": "06-6346-6002",
    "shop": "hobby",
    "shop:anime": "yes",
    "shop:game": "yes",
    "shop:tcg": "yes",
    "website": "https://www.pokemon.co.jp/gp/pokecen/osaka/"
  }
},
{
  "type": "node",
  "id": 4366584394,
  "lat": 34.7031686,
  "lon": 135.4960061,
  "timestamp": "2017-10-06T15:47:52Z",
  "version": 2,
  "changeset": 52686950,
  "user": "Rakkka",
  "uid": 4954428,
  "tags": {
    "level": "7",
    "name": "スキンフード",
    "name:en": "skin food",
    "opening_hours": "10:00-21:00",
    "shop": "beauty"
  }
},
{
  "type": "node",
  "id": 4572487893,
  "lat": 34.6994726,
  "lon": 135.4942529,
  "timestamp": "2023-10-30T06:35:12Z",
  "version": 6,
  "changeset": 143346237,
  "user": "b-jazz-bot",
  "uid": 9451067,
  "tags": {
    "addr:block_number": "2",
    "addr:housenumber": "22",
    "addr:neighbourhood": "梅田二丁目",
    "amenity": "cafe",
    "level": "-2",
    "name": "Antico Caffe Al Avis",
    "opening_hours": "Su-Th 11:00-22:00,Fr-Sa 11:00-22:30",
    "shop": "bakery",
    "toilets:wheelchair": "yes",
    "website": "https://www.hakka-group.co.jp/?cmd=read&page=roll%20madu%20umeda",
    "wheelchair": "yes"
  }
},
{
  "type": "node",
  "id": 4584816489,
  "lat": 34.6985046,
  "lon": 135.4939391,
  "timestamp": "2023-07-23T04:35:04Z",
  "version": 7,
  "changeset": 138878361,
  "user": "okadatsuneo",
  "uid": 10163840,
  "tags": {
    "addr:block_number": "4",
    "addr:city": "大阪市",
    "addr:housenumber": "9",
    "addr:neighbourhood": "梅田二丁目",
    "name": "ブリーゼブリーゼ",
    "name:en": "breeze breeze",
    "name:fr": "BREEZÉ BREEZÉ",
    "opening_hours": "Mo-Su 11:00-21:00",
    "shop": "mall",
    "toilets:wheelchair": "yes",
    "website": "https://www.breeze-breeze.jp/info/",
    "wheelchair": "limited"
  }
},
{
  "type": "node",
  "id": 4628827489,
  "lat": 34.7034116,
  "lon": 135.4965523,
  "timestamp": "2017-11-22T12:40:45Z",
  "version": 5,
  "changeset": 54000519,
  "user": "Rakkka",
  "uid": 4954428,
  "tags": {
    "branch": "ルクア大阪店",
    "name": "スポーツラボ バイ アトモス",
    "name:en": "Sports Lab by ATMOS",
    "name:ja": "スポーツラボ バイ アトモス",
    "shop": "shoes",
    "toilets:wheelchair": "yes",
    "wheelchair": "yes"
  }
},
{
  "type": "node",
  "id": 4633805489,
  "lat": 34.7004044,
  "lon": 135.4984825,
  "timestamp": "2017-06-20T10:18:23Z",
  "version": 2,
  "changeset": 49689182,
  "user": "Rakkka",
  "uid": 4954428,
  "tags": {
    "name:en": "G. B. Gafas",
    "shop": "optician"
  }
},
{
  "type": "node",
  "id": 4819864621,
  "lat": 34.7018865,
  "lon": 135.5015446,
  "timestamp": "2025-05-19T01:42:33Z",
  "version": 5,
  "changeset": 166453311,
  "user": "CR86",
  "uid": 1879503,
  "tags": {
    "brand": "7-ELEVEN",
    "brand:en": "7-ELEVEN",
    "brand:ja": "セブン-イレブン",
    "brand:wikidata": "Q259340",
    "brand:wikipedia": "en:7-Eleven",
    "name": "セブン-イレブン",
    "name:en": "7-Eleven",
    "name:ja": "セブン-イレブン",
    "official_name:en": "Seven-Eleven",
    "shop": "convenience"
  }
},
{
  "type": "node",
  "id": 4919245158,
  "lat": 34.7039603,
  "lon": 135.4947545,
  "timestamp": "2018-12-28T09:27:05Z",
  "version": 2,
  "changeset": 65835711,
  "user": "Rakkka",
  "uid": 4954428,
  "tags": {
    "level": "10",
    "name": "LIXILショールーム大阪",
    "shop": "yes"
  }
},
{
  "type": "node",
  "id": 4927165221,
  "lat": 34.7023274,
  "lon": 135.4961741,
  "timestamp": "2024-03-17T15:13:20Z",
  "version": 8,
  "changeset": 148776674,
  "user": "Lactone",
  "uid": 5578057,
  "tags": {
    "addr:block_number": "1",
    "addr:city": "大阪市",
    "addr:housenumber": "1",
    "addr:neighbourhood": "梅田三丁目",
    "addr:province": "大阪府",
    "addr:suburb": "北区",
    "air_conditioning": "yes",
    "branch": "アントレマルシェ大阪店",
    "brand": "7-ELEVEN",
    "brand:en": "7-ELEVEN",
    "brand:ja": "セブン-イレブン",
    "brand:wikidata": "Q259340",
    "brand:wikipedia": "en:7-Eleven",
    "currency:JPY": "yes",
    "level": "0",
    "name": "セブン-イレブン",
    "name:en": "7-Eleven",
    "name:ja": "セブン-イレブン",
    "name:zh": "7-11（免稅）",
    "official_name:en": "Seven-Eleven",
    "payment:cash": "yes",
    "payment:mastercard": "yes",
    "payment:visa": "yes",
    "phone": "+81 6 6440 1122",
    "shop": "convenience",
    "toilets:wheelchair": "yes",
    "wheelchair": "yes"
  }
},
{
  "type": "node",
  "id": 5051066999,
  "lat": 34.7039811,
  "lon": 135.4960123,
  "timestamp": "2020-11-02T12:07:50Z",
  "version": 5,
  "changeset": 93419101,
  "user": "Rakkka",
  "uid": 4954428,
  "tags": {
    "level": "6",
    "name": "アイガン",
    "name:en": "Aigan",
    "shop": "optician",
    "toilets:wheelchair": "yes",
    "wheelchair": "yes"
  }
},
{
  "type": "node",
  "id": 5052411587,
  "lat": 34.7031031,
  "lon": 135.4998122,
  "timestamp": "2023-12-03T23:28:18Z",
  "version": 3,
  "changeset": 144735454,
  "user": "okadatsuneo",
  "uid": 10163840,
  "tags": {
    "name": "阪急メンズ大阪",
    "name:en": "Hankyu Men's Osaka",
    "shop": "department_store"
  }
},
{
  "type": "node",
  "id": 5058151890,
  "lat": 34.6999492,
  "lon": 135.4983537,
  "timestamp": "2025-01-24T15:03:06Z",
  "version": 6,
  "changeset": 161716066,
  "user": "setokynet",
  "uid": 21931672,
  "tags": {
    "branch": "第４ビル地下2階店",
    "brand": "LAWSON",
    "brand:en": "LAWSON",
    "brand:ja": "ローソン",
    "brand:wikidata": "Q1557223",
    "brand:wikipedia": "ja:ローソン",
    "level": "-2",
    "name": "ローソン",
    "name:en": "Lawson",
    "name:ja": "ローソン",
    "name:ko": "로손",
    "opening_hours": "07:00-23:00",
    "shop": "convenience"
  }
},
{
  "type": "node",
  "id": 5073213466,
  "lat": 34.6989936,
  "lon": 135.4976699,
  "timestamp": "2017-11-13T13:25:42Z",
  "version": 3,
  "changeset": 53740297,
  "user": "Rakkka",
  "uid": 4954428,
  "tags": {
    "level": "-1",
    "name": "北京整体院",
    "opening_hours": "11:00-22:00",
    "shop": "massage"
  }
},
{
  "type": "node",
  "id": 5082724322,
  "lat": 34.6987323,
  "lon": 135.4940941,
  "timestamp": "2025-05-19T01:42:33Z",
  "version": 8,
  "changeset": 166453311,
  "user": "CR86",
  "uid": 1879503,
  "tags": {
    "brand": "7-ELEVEN",
    "brand:en": "7-ELEVEN",
    "brand:ja": "セブン-イレブン",
    "brand:wikidata": "Q259340",
    "brand:wikipedia": "en:7-Eleven",
    "name": "セブン-イレブン",
    "name:en": "7-Eleven",
    "name:ja": "セブン-イレブン",
    "name:ja-Latn": "Sebun Irebun",
    "name:ko": "세븐일레븐",
    "official_name:en": "Seven-Eleven",
    "opening_hours": "24/7",
    "shop": "convenience",
    "toilets:wheelchair": "no",
    "wheelchair": "yes"
  }
},
{
  "type": "node",
  "id": 5152027301,
  "lat": 34.7030414,
  "lon": 135.4959968,
  "timestamp": "2024-03-17T03:34:34Z",
  "version": 4,
  "changeset": 148756786,
  "user": "Lactone",
  "uid": 5578057,
  "tags": {
    "branch": "ルクア大阪店",
    "brand": "無印良品",
    "brand:en": "MUJI",
    "brand:ja": "無印良品",
    "brand:wikidata": "Q708789",
    "level": "7",
    "name": "無印良品",
    "name:en": "MUJI",
    "name:ja": "無印良品",
    "official_name:en": "Ryohin Keikaku",
    "opening_hours": "10:00-21:00",
    "shop": "variety_store"
  }
},
{
  "type": "node",
  "id": 5152027302,
  "lat": 34.7028624,
  "lon": 135.4975057,
  "timestamp": "2025-05-19T01:42:33Z",
  "version": 5,
  "changeset": 166453311,
  "user": "CR86",
  "uid": 1879503,
  "tags": {
    "branch": "ハートインJR大阪駅御堂筋南口店",
    "brand": "7-ELEVEN",
    "brand:en": "7-ELEVEN",
    "brand:ja": "セブン-イレブン",
    "brand:wikidata": "Q259340",
    "brand:wikipedia": "en:7-Eleven",
    "name": "セブン-イレブン",
    "name:en": "7-Eleven",
    "name:ja": "セブン-イレブン",
    "official_name:en": "Seven-Eleven",
    "shop": "convenience"
  }
},
{
  "type": "node",
  "id": 5152027303,
  "lat": 34.7016842,
  "lon": 135.4968202,
  "timestamp": "2020-07-25T02:09:58Z",
  "version": 5,
  "changeset": 88481372,
  "user": "fuk",
  "uid": 550066,
  "tags": {
    "branch": "大丸梅田店",
    "brand": "ユニクロ",
    "brand:en": "UNIQLO",
    "brand:ja": "ユニクロ",
    "brand:wikidata": "Q26070",
    "brand:wikipedia": "en:Uniqlo",
    "level": "12",
    "name": "ユニクロ",
    "name:en": "UNIQLO",
    "name:ja": "ユニクロ",
    "shop": "clothes"
  }
},
{
  "type": "node",
  "id": 5152027304,
  "lat": 34.7015358,
  "lon": 135.4963615,
  "timestamp": "2022-11-12T09:17:37Z",
  "version": 4,
  "changeset": 128804955,
  "user": "FlyingWitchDog",
  "uid": 14052707,
  "tags": {
    "branch": "梅田店",
    "brand": "ハンズ",
    "brand:en": "Hands",
    "brand:ja": "ハンズ",
    "brand:wikidata": "Q859212",
    "level": "9;10;11",
    "name": "ハンズ",
    "name:en": "Hands",
    "name:ja": "ハンズ",
    "shop": "variety_store"
  }
},
{
  "type": "node",
  "id": 5178187484,
  "lat": 34.7038545,
  "lon": 135.4947365,
  "timestamp": "2018-12-28T09:27:06Z",
  "version": 5,
  "changeset": 65835711,
  "user": "Rakkka",
  "uid": 4954428,
  "tags": {
    "clothes": "fashion;women;men",
    "level": "1",
    "name": "Beams House",
    "name:ja": "ビームス ハウス",
    "shop": "boutique"
  }
},
{
  "type": "node",
  "id": 5206521430,
  "lat": 34.7033804,
  "lon": 135.4964051,
  "timestamp": "2017-11-22T12:40:45Z",
  "version": 2,
  "changeset": 54000519,
  "user": "Rakkka",
  "uid": 4954428,
  "tags": {
    "name": "ピーチジョン ザ ストア",
    "name:en": "Peace John The Store",
    "opening_hours": "Mo-Su 10:00-21:00",
    "shop": "cosmetics"
  }
},
{
  "type": "node",
  "id": 5226429658,
  "lat": 34.6990854,
  "lon": 135.4959485,
  "timestamp": "2017-11-13T13:25:33Z",
  "version": 1,
  "changeset": 53740297,
  "user": "Rakkka",
  "uid": 4954428,
  "tags": {
    "level": "0",
    "name": "大林",
    "shop": "yes"
  }
},
{
  "type": "node",
  "id": 5226429659,
  "lat": 34.6987458,
  "lon": 135.4966633,
  "timestamp": "2021-07-02T02:15:28Z",
  "version": 2,
  "changeset": 107284523,
  "user": "Rakkka",
  "uid": 4954428,
  "tags": {
    "level": "0",
    "name": "信長書店",
    "shop": "erotic"
  }
},
{
  "type": "node",
  "id": 5226429660,
  "lat": 34.6990269,
  "lon": 135.4970133,
  "timestamp": "2017-11-13T13:25:34Z",
  "version": 1,
  "changeset": 53740297,
  "user": "Rakkka",
  "uid": 4954428,
  "tags": {
    "level": "0",
    "name": "ウインザーラケットショップ",
    "shop": "sports"
  }
},
{
  "type": "node",
  "id": 5226429662,
  "lat": 34.6990110,
  "lon": 135.4982365,
  "timestamp": "2019-04-20T08:38:02Z",
  "version": 3,
  "changeset": 69397618,
  "user": "Munkson",
  "uid": 212445,
  "tags": {
    "level": "0",
    "name": "ヤトゴルフ",
    "shop": "sports",
    "sport": "golf"
  }
},
{
  "type": "node",
  "id": 5226429663,
  "lat": 34.6989421,
  "lon": 135.4974572,
  "timestamp": "2017-11-13T13:25:34Z",
  "version": 1,
  "changeset": 53740297,
  "user": "Rakkka",
  "uid": 4954428,
  "tags": {
    "level": "0",
    "name": "フォーエル",
    "shop": "clothes"
  }
},
{
  "type": "node",
  "id": 5226429664,
  "lat": 34.6990332,
  "lon": 135.4975327,
  "timestamp": "2019-04-20T08:38:02Z",
  "version": 2,
  "changeset": 69397618,
  "user": "Munkson",
  "uid": 212445,
  "tags": {
    "level": "0",
    "name": "Mt.石井スポーツ",
    "shop": "sports",
    "sport": "climbing"
  }
},
{
  "type": "node",
  "id": 5226429666,
  "lat": 34.6990134,
  "lon": 135.4996117,
  "timestamp": "2017-11-13T13:25:34Z",
  "version": 1,
  "changeset": 53740297,
  "user": "Rakkka",
  "uid": 4954428,
  "tags": {
    "level": "0",
    "name": "ピュアサウンド",
    "shop": "music"
  }
},
{
  "type": "node",
  "id": 5226429667,
  "lat": 34.6984745,
  "lon": 135.4997452,
  "timestamp": "2025-05-19T01:42:33Z",
  "version": 5,
  "changeset": 166453311,
  "user": "CR86",
  "uid": 1879503,
  "tags": {
    "brand": "LAWSON",
    "brand:en": "LAWSON",
    "brand:ja": "ローソン",
    "brand:wikidata": "Q1557223",
    "brand:wikipedia": "ja:ローソン",
    "level": "0",
    "name": "ローソン",
    "name:en": "Lawson",
    "name:ja": "ローソン",
    "name:ko": "로손",
    "opening_hours": "24/7",
    "shop": "convenience"
  }
},
{
  "type": "node",
  "id": 5226429668,
  "lat": 34.6990325,
  "lon": 135.4988345,
  "timestamp": "2021-06-29T17:53:20Z",
  "version": 2,
  "changeset": 107163569,
  "user": "Yuxian",
  "uid": 10084645,
  "tags": {
    "brand": "はるやま",
    "brand:en": "Haruyama",
    "brand:ja": "はるやま",
    "brand:wikidata": "Q11275918",
    "brand:wikipedia": "ja:はるやま商事",
    "level": "0",
    "name": "はるやま",
    "name:en": "Haruyama",
    "name:ja": "はるやま",
    "shop": "clothes"
  }
},
{
  "type": "node",
  "id": 5242643218,
  "lat": 34.7039768,
  "lon": 135.4958015,
  "timestamp": "2021-07-16T21:25:33Z",
  "version": 5,
  "changeset": 108141104,
  "user": "Yuxian",
  "uid": 10084645,
  "tags": {
    "branch": "ヨドバシ梅田店",
    "brand": "ライトオン",
    "brand:en": "Right-on",
    "brand:ja": "ライトオン",
    "brand:wikidata": "Q11346416",
    "brand:wikipedia": "ja:ライトオン",
    "level": "5",
    "name": "ライトオン",
    "name:en": "Right-on",
    "name:ja": "ライトオン",
    "opening_hours": "09:30-22:00",
    "phone": "+81 6 6485 3019",
    "shop": "clothes",
    "website": "https://right-on.co.jp/"
  }
},
{
  "type": "node",
  "id": 5246918082,
  "lat": 34.7038905,
  "lon": 135.4961687,
  "timestamp": "2020-11-02T12:07:50Z",
  "version": 5,
  "changeset": 93419101,
  "user": "Rakkka",
  "uid": 4954428,
  "tags": {
    "branch": "ヨドバシ梅田",
    "clothes": "men",
    "level": "5",
    "name": "RAGEBLUE",
    "name:en": "Rage Blue",
    "name:ja": "レイジブルー",
    "opening_hours": "09:30-22:00",
    "phone": "+81 6 6292 5033",
    "shop": "clothes",
    "website": "http://www.rageblue.jp/"
  }
},
{
  "type": "node",
  "id": 5283166321,
  "lat": 34.7034344,
  "lon": 135.4971793,
  "timestamp": "2019-08-20T11:55:51Z",
  "version": 5,
  "changeset": 73535816,
  "user": "Rakkka",
  "uid": 4954428,
  "tags": {
    "level": "0",
    "name": "いかり",
    "name:en": "Ikari",
    "name:zh": "Ikari super超市",
    "shop": "supermarket"
  }
},
{
  "type": "node",
  "id": 5291849555,
  "lat": 34.7038924,
  "lon": 135.4951905,
  "timestamp": "2023-08-08T10:17:29Z",
  "version": 3,
  "changeset": 139605584,
  "user": "Rakkka",
  "uid": 4954428,
  "tags": {
    "branch": "グランフロント大阪店",
    "brand": "KEYUCA",
    "level": "-1",
    "name": "ケユカ",
    "name:en": "Keyuca",
    "name:ja": "ケユカ",
    "shop": "houseware"
  }
},
{
  "type": "node",
  "id": 5370502688,
  "lat": 34.6995893,
  "lon": 135.4944679,
  "timestamp": "2018-01-29T15:02:54Z",
  "version": 1,
  "changeset": 55862370,
  "user": "yatcin",
  "uid": 2180680,
  "tags": {
    "branch": "大阪",
    "level": "3",
    "name": "ソニーストア",
    "name:en": "Sony Store",
    "name:ja": "ソニーストア",
    "shop": "electronics",
    "source": "survey 2018-01-28"
  }
},
{
  "type": "node",
  "id": 5370502689,
  "lat": 34.6982981,
  "lon": 135.4935493,
  "timestamp": "2018-01-29T15:02:54Z",
  "version": 1,
  "changeset": 55862370,
  "user": "yatcin",
  "uid": 2180680,
  "tags": {
    "branch": "桜橋専売所",
    "name": "北大阪産経新聞販売",
    "official_name": "北大阪産経新聞販売株式会社",
    "shop": "newsagent",
    "source": "survey 2018-01-28"
  }
},
{
  "type": "node",
  "id": 5422546069,
  "lat": 34.7039637,
  "lon": 135.4982430,
  "timestamp": "2022-10-24T12:19:05Z",
  "version": 3,
  "changeset": 127994421,
  "user": "wheelmap_visitor",
  "uid": 290680,
  "tags": {
    "level": "1",
    "name:en": "Cook Deli Gozen",
    "shop": "kiosk",
    "wheelchair": "yes"
  }
},
{
  "type": "node",
  "id": 5437179381,
  "lat": 34.7021561,
  "lon": 135.4962005,
  "timestamp": "2021-08-07T06:02:38Z",
  "version": 5,
  "changeset": 109294187,
  "user": "Rakkka",
  "uid": 4954428,
  "tags": {
    "location": "underground",
    "name": "クロスト",
    "name:en": "crost",
    "shop": "mall"
  }
},
{
  "type": "node",
  "id": 5634107190,
  "lat": 34.6988836,
  "lon": 135.4998498,
  "timestamp": "2022-11-05T14:10:04Z",
  "version": 3,
  "changeset": 128522393,
  "user": "Rakkka",
  "uid": 4954428,
  "tags": {
    "level": "-2",
    "name": "永井古書店",
    "second_hand": "only",
    "shop": "books"
  }
},
{
  "type": "node",
  "id": 5636325904,
  "lat": 34.7036095,
  "lon": 135.5013625,
  "timestamp": "2018-05-23T01:20:13Z",
  "version": 1,
  "changeset": 59195651,
  "user": "Munkson",
  "uid": 212445,
  "tags": {
    "level": "0",
    "name": "Marty Mart",
    "shop": "tobacco",
    "wheelchair": "yes"
  }
},
{
  "type": "node",
  "id": 5647703849,
  "lat": 34.7037984,
  "lon": 135.4948525,
  "timestamp": "2018-09-19T12:03:39Z",
  "version": 2,
  "changeset": 62728094,
  "user": "Munkson",
  "uid": 212445,
  "tags": {
    "level": "4",
    "name": "Mont-bell",
    "shop": "sports",
    "sport": "climbing"
  }
},
{
  "type": "node",
  "id": 5647703850,
  "lat": 34.7037417,
  "lon": 135.4951272,
  "timestamp": "2018-12-28T09:27:09Z",
  "version": 2,
  "changeset": 65835711,
  "user": "Rakkka",
  "uid": 4954428,
  "tags": {
    "level": "4",
    "name": "CW-X conditioning store",
    "shop": "sports",
    "sport": "running",
    "wheelchair": "yes"
  }
},
{
  "type": "node",
  "id": 5684981478,
  "lat": 34.6990141,
  "lon": 135.4984128,
  "timestamp": "2025-05-19T01:42:33Z",
  "version": 4,
  "changeset": 166453311,
  "user": "CR86",
  "uid": 1879503,
  "tags": {
    "brand": "7-ELEVEN",
    "brand:en": "7-ELEVEN",
    "brand:ja": "セブン-イレブン",
    "brand:wikidata": "Q259340",
    "brand:wikipedia": "en:7-Eleven",
    "level": "-1",
    "name": "セブン-イレブン",
    "name:en": "7-Eleven",
    "name:ja": "セブン-イレブン",
    "official_name:en": "Seven-Eleven",
    "shop": "convenience",
    "wheelchair": "yes"
  }
},
{
  "type": "node",
  "id": 5684981480,
  "lat": 34.6993220,
  "lon": 135.4986121,
  "timestamp": "2024-09-09T11:17:36Z",
  "version": 5,
  "changeset": 156389592,
  "user": "Rakkka",
  "uid": 4954428,
  "tags": {
    "brand": "ヴィ・ド・フランス",
    "brand:en": "Vie de France",
    "brand:ja": "ヴィ・ド・フランス",
    "brand:wikidata": "Q7928249",
    "brand:wikipedia": "ja:ヴィ・ド・フランス",
    "cuisine": "coffee_shop",
    "level": "-2",
    "name": "ヴィ・ド・フランス",
    "name:en": "Vie de France",
    "name:fr": "Vie De France",
    "name:ja": "ヴィ・ド・フランス",
    "shop": "bakery",
    "wheelchair": "yes"
  }
},
{
  "type": "node",
  "id": 5684981482,
  "lat": 34.7009847,
  "lon": 135.4982451,
  "timestamp": "2022-11-12T09:17:37Z",
  "version": 3,
  "changeset": 128804955,
  "user": "FlyingWitchDog",
  "uid": 14052707,
  "tags": {
    "brand": "ジンズ",
    "brand:en": "JINS",
    "brand:ja": "ジンズ",
    "brand:wikidata": "Q11308974",
    "level": "-2",
    "location": "underground",
    "name": "JINS",
    "name:en": "Jins",
    "name:ja": "ジンズ",
    "shop": "optician"
  }
},
{
  "type": "node",
  "id": 5714662622,
  "lat": 34.7012090,
  "lon": 135.4984253,
  "timestamp": "2018-07-26T01:36:10Z",
  "version": 2,
  "changeset": 61071951,
  "user": "Rakkka",
  "uid": 4954428,
  "tags": {
    "level": "0",
    "name": "S・Fle'",
    "name:ja": "スフレ",
    "shop": "florist"
  }
},
{
  "type": "node",
  "id": 5733936533,
  "lat": 34.6990671,
  "lon": 135.4981769,
  "timestamp": "2025-05-19T01:42:33Z",
  "version": 5,
  "changeset": 166453311,
  "user": "CR86",
  "uid": 1879503,
  "tags": {
    "brand": "7-ELEVEN",
    "brand:en": "7-ELEVEN",
    "brand:ja": "セブン-イレブン",
    "brand:wikidata": "Q259340",
    "brand:wikipedia": "en:7-Eleven",
    "level": "-2",
    "name": "セブン-イレブン",
    "name:en": "7-Eleven",
    "name:ja": "セブン-イレブン",
    "name:zh": "711便利店",
    "official_name:en": "Seven-Eleven",
    "shop": "convenience",
    "wheelchair": "yes"
  }
},
{
  "type": "node",
  "id": 5760549760,
  "lat": 34.6988176,
  "lon": 135.4978458,
  "timestamp": "2018-08-22T12:52:53Z",
  "version": 2,
  "changeset": 61886983,
  "user": "Rakkka",
  "uid": 4954428,
  "tags": {
    "level": "-2",
    "male": "yes",
    "name": "Yui",
    "opening_hours": "Mo-Fr 10:00-20:00; Sa 10:00-19:30; PH closed",
    "phone": "06-6341-3828",
    "shop": "hairdresser",
    "wheelchair": "yes"
  }
},
{
  "type": "node",
  "id": 5797424232,
  "lat": 34.7026739,
  "lon": 135.4946922,
  "timestamp": "2024-11-09T03:25:23Z",
  "version": 8,
  "changeset": 158918409,
  "user": "87654321hhh",
  "uid": 19414127,
  "tags": {
    "air_conditioning": "yes",
    "branch": "梅田",
    "level": "8",
    "name": "蔦屋書店",
    "name:en": "Umeda Tsutaya Books",
    "payment:cash": "yes",
    "payment:mastercard": "yes",
    "payment:mastercard_contactless": "yes",
    "shop": "books",
    "twitter": "@umetsuta",
    "wikidata": "Q131100792"
  }
},
{
  "type": "node",
  "id": 5846148866,
  "lat": 34.7029576,
  "lon": 135.4990867,
  "timestamp": "2020-12-04T11:25:08Z",
  "version": 2,
  "changeset": 95290701,
  "user": "Rakkka",
  "uid": 4954428,
  "tags": {
    "name": "阪急32番街",
    "name:en": "Hankyu 32 Bangai",
    "shop": "mall"
  }
},
{
  "type": "node",
  "id": 5858941191,
  "lat": 34.6990675,
  "lon": 135.4993100,
  "timestamp": "2023-07-23T08:33:02Z",
  "version": 5,
  "changeset": 138883364,
  "user": "okadatsuneo",
  "uid": 10163840,
  "tags": {
    "addr:block_number": "1",
    "addr:city": "大阪市",
    "addr:country": "JP",
    "addr:housename": "大阪駅前第3ビル",
    "addr:housenumber": "3",
    "addr:neighbourhood": "梅田一丁目",
    "addr:postcode": "530-0001",
    "addr:province": "大阪府",
    "addr:room": "B100",
    "addr:suburb": "北区",
    "branch": "梅田店",
    "branch:en": "Umeda",
    "brand": "ゲーマーズ",
    "brand:en": "Gamers",
    "level": "-1",
    "name": "ゲーマーズ",
    "name:en": "Gamers",
    "name:ja": "ゲーマーズ",
    "opening_hours": "11:00-20:00",
    "phone": "06-6442-3755",
    "shop": "hobby",
    "shop:anime": "yes",
    "shop:books": "yes",
    "shop:comic_goods": "yes",
    "shop:doujinshi": "yes",
    "shop:figurines": "yes",
    "shop:games": "yes",
    "shop:manga": "yes",
    "shop:music": "yes",
    "shop:videos": "yes",
    "website": "https://www.gamers.co.jp/shop/4214/"
  }
},
{
  "type": "node",
  "id": 5860962134,
  "lat": 34.7038137,
  "lon": 135.4977735,
  "timestamp": "2020-02-16T16:17:47Z",
  "version": 3,
  "changeset": 81075188,
  "user": "K_Sakanoshita",
  "uid": 389520,
  "tags": {
    "level": "0",
    "name": "あんぱんや",
    "shop": "bakery",
    "wheelchair": "yes"
  }
},
{
  "type": "node",
  "id": 5865318031,
  "lat": 34.7011649,
  "lon": 135.4986066,
  "timestamp": "2023-10-30T06:26:55Z",
  "version": 3,
  "changeset": 143345877,
  "user": "b-jazz-bot",
  "uid": 9451067,
  "tags": {
    "name": "阪神梅田本店",
    "name:en": "Hanshin Umeda Main Store",
    "opening_hours": "10:00-20:00",
    "phone": "+81 6 6345 1201",
    "shop": "department_store",
    "toilets": "yes",
    "toilets:wheelchair": "yes",
    "website": "https://www.hanshin-dept.jp/hshonten/"
  }
},
{
  "type": "node",
  "id": 5865318498,
  "lat": 34.7034481,
  "lon": 135.4991698,
  "timestamp": "2024-09-10T00:24:47Z",
  "version": 3,
  "changeset": 156417783,
  "user": "Rakkka",
  "uid": 4954428,
  "tags": {
    "name": "Sweet's",
    "name:ja": "スィーティーズ",
    "shop": "pastry"
  }
},
{
  "type": "node",
  "id": 5890883055,
  "lat": 34.6994555,
  "lon": 135.4987665,
  "timestamp": "2025-05-19T01:42:33Z",
  "version": 3,
  "changeset": 166453311,
  "user": "CR86",
  "uid": 1879503,
  "tags": {
    "atm": "yes",
    "branch": "ディアモール大阪店",
    "brand": "FamilyMart",
    "brand:en": "FamilyMart",
    "brand:ja": "ファミリーマート",
    "brand:wikidata": "Q11247682",
    "brand:wikipedia": "en:FamilyMart",
    "level": "-2",
    "name": "ファミリーマート",
    "name:en": "FamilyMart",
    "name:ja": "ファミリーマート",
    "opening_hours": "Mo-Su 07:00-23:00",
    "shop": "convenience",
    "wheelchair": "yes"
  }
},
{
  "type": "node",
  "id": 5896269887,
  "lat": 34.7038010,
  "lon": 135.4999557,
  "timestamp": "2025-05-19T01:42:33Z",
  "version": 4,
  "changeset": 166453311,
  "user": "CR86",
  "uid": 1879503,
  "tags": {
    "addr:block_number": "5",
    "addr:city": "大阪市",
    "addr:country": "JP",
    "addr:housename": "HEP FIVE",
    "addr:housenumber": "15",
    "addr:neighbourhood": "角田町",
    "addr:province": "大阪府",
    "addr:suburb": "北区",
    "anime:gift": "yes",
    "anime:manga": "yes",
    "branch": "大阪梅田店",
    "branch:en": "Umeda",
    "brand": "ジャンプショップ",
    "brand:en": "Jump Shop",
    "brand:ja": "ジャンプショップ",
    "brand:wikidata": "Q11310200",
    "level": "5",
    "name": "ジャンプショップ",
    "name:en": "Jump Shop",
    "name:ja": "ジャンプショップ",
    "opening_hours": "11:00-21:00",
    "operator": "Shueisha",
    "phone": "06-6366-3722",
    "shop": "anime",
    "website": "http://www.shonenjump.com/j/jumpshop/store.html"
  }
},
{
  "type": "node",
  "id": 5899280408,
  "lat": 34.7037939,
  "lon": 135.4978279,
  "timestamp": "2020-02-16T16:17:47Z",
  "version": 4,
  "changeset": 81075188,
  "user": "K_Sakanoshita",
  "uid": 389520,
  "tags": {
    "amenity": "cafe",
    "level": "0",
    "name": "Mior",
    "shop": "confectionery"
  }
},
{
  "type": "node",
  "id": 5899709994,
  "lat": 34.7017867,
  "lon": 135.4962341,
  "timestamp": "2025-07-05T00:56:58Z",
  "version": 6,
  "changeset": 168505878,
  "user": "gc27",
  "uid": 7130304,
  "tags": {
    "addr:block_number": "1",
    "addr:city": "大阪市",
    "addr:country": "JP",
    "addr:housename": "大丸梅田店",
    "addr:housenumber": "3",
    "addr:neighbourhood": "梅田三丁目",
    "addr:place": "ソラマチ",
    "addr:postcode": "530-8202",
    "addr:province": "大阪府",
    "addr:suburb": "北区",
    "branch": "大阪店",
    "branch:en": "Osaka",
    "brand": "トミカ",
    "brand:en": "Tomica",
    "brand:wikidata": "Q935432",
    "contact:phone": "+81 6-4796-6255",
    "contact:website": "https://www.takaratomy.co.jp/products/tomicashop/shop/osaka.htm",
    "level": "12",
    "level:ref": "13F",
    "name": "トミカ",
    "name:en": "Tomica",
    "name:fr": "Tomica",
    "name:ja-Latn": "Tomika",
    "official_name": "トミカショップ 大阪店",
    "official_name:en": "Tomica Shop Osaka",
    "official_name:fr": "Tomica Osaka",
    "official_name:ja-Latn": "Tomika shoppu Ōsaka-mise",
    "opening_hours": "10:00-20:00",
    "shop": "toys",
    "wheelchair": "yes"
  }
},
{
  "type": "node",
  "id": 6024790831,
  "lat": 34.7034038,
  "lon": 135.4983751,
  "timestamp": "2025-05-19T01:42:33Z",
  "version": 5,
  "changeset": 166453311,
  "user": "CR86",
  "uid": 1879503,
  "tags": {
    "brand": "A-1 Bakery",
    "brand:en": "A-1 Bakery",
    "brand:ja": "エーワンベーカリー",
    "brand:wikidata": "Q117270360",
    "check_date": "2024-05-10",
    "level": "0",
    "name": "A-1 Bakery",
    "name:en": "A-1 Bakery",
    "name:ja": "エーワンベーカリー",
    "shop": "bakery",
    "wheelchair": "limited"
  }
},
{
  "type": "node",
  "id": 6024790833,
  "lat": 34.7033493,
  "lon": 135.4982864,
  "timestamp": "2024-05-10T06:37:10Z",
  "version": 4,
  "changeset": 151128830,
  "user": "Shinji Enoki",
  "uid": 420519,
  "tags": {
    "alt_name": "HIROTA",
    "check_date": "2024-05-10",
    "level": "0",
    "name": "御座候",
    "shop": "confectionery",
    "wheelchair": "yes"
  }
},
{
  "type": "node",
  "id": 6024811131,
  "lat": 34.6989784,
  "lon": 135.4939918,
  "timestamp": "2018-11-09T12:03:38Z",
  "version": 2,
  "changeset": 64322894,
  "user": "Rakkka",
  "uid": 4954428,
  "tags": {
    "level": "0;1",
    "name": "ユナイテッドアローズ",
    "name:en": "UNITED ARROWS",
    "shop": "clothes"
  }
},
{
  "type": "node",
  "id": 6024811134,
  "lat": 34.6996538,
  "lon": 135.4940937,
  "timestamp": "2020-07-25T02:09:58Z",
  "version": 2,
  "changeset": 88481372,
  "user": "fuk",
  "uid": 550066,
  "tags": {
    "level": "0",
    "name": "TIFFANY&CO.",
    "name:en": "TIFFANY&CO.",
    "name:ja": "ティファニー",
    "shop": "clothes"
  }
},
{
  "type": "node",
  "id": 6024811135,
  "lat": 34.6999785,
  "lon": 135.4945638,
  "timestamp": "2020-07-25T02:09:58Z",
  "version": 2,
  "changeset": 88481372,
  "user": "fuk",
  "uid": 550066,
  "tags": {
    "brand": "Gucci",
    "brand:wikidata": "Q178516",
    "brand:wikipedia": "en:Gucci",
    "level": "0",
    "name": "Gucci",
    "name:en": "GUCCI",
    "name:ja": "グッチ",
    "shop": "clothes"
  }
},
{
  "type": "node",
  "id": 6048835693,
  "lat": 34.6991168,
  "lon": 135.4934219,
  "timestamp": "2022-11-12T09:17:37Z",
  "version": 2,
  "changeset": 128804955,
  "user": "FlyingWitchDog",
  "uid": 14052707,
  "tags": {
    "brand": "Emporio Armani",
    "brand:wikidata": "Q3497483",
    "name": "Emporio Armani",
    "name:en": "Emporio Armani",
    "shop": "clothes"
  }
},
{
  "type": "node",
  "id": 6092459885,
  "lat": 34.7039832,
  "lon": 135.4952092,
  "timestamp": "2018-12-28T09:27:10Z",
  "version": 2,
  "changeset": 65835711,
  "user": "Rakkka",
  "uid": 4954428,
  "tags": {
    "level": "5",
    "name": "アリーナショップ大阪",
    "name:en": "Arena Shop Osaka",
    "operator": "Descente",
    "shop": "sports",
    "sport": "swimming",
    "wheelchair": "yes"
  }
},
{
  "type": "node",
  "id": 6253707957,
  "lat": 34.6985870,
  "lon": 135.4992846,
  "timestamp": "2019-02-02T14:01:00Z",
  "version": 1,
  "changeset": 66856242,
  "user": "Munkson",
  "uid": 212445,
  "tags": {
    "level": "-2",
    "name": "王宮",
    "shop": "massage"
  }
},
{
  "type": "node",
  "id": 6297058501,
  "lat": 34.6986945,
  "lon": 135.4950875,
  "timestamp": "2025-05-19T01:42:33Z",
  "version": 3,
  "changeset": 166453311,
  "user": "CR86",
  "uid": 1879503,
  "tags": {
    "brand": "LAWSON",
    "brand:en": "LAWSON",
    "brand:ja": "ローソン",
    "brand:wikidata": "Q1557223",
    "brand:wikipedia": "ja:ローソン",
    "name": "ローソン",
    "name:en": "Lawson",
    "name:ja": "ローソン",
    "shop": "convenience"
  }
},
{
  "type": "node",
  "id": 6336018229,
  "lat": 34.7016930,
  "lon": 135.4979729,
  "timestamp": "2024-06-24T08:33:48Z",
  "version": 4,
  "changeset": 153099784,
  "user": "b-jazz-bot",
  "uid": 9451067,
  "tags": {
    "addr:city": "大阪市",
    "addr:housenumber": "6",
    "addr:neighbourhood": "梅田三丁目",
    "addr:province": "大阪府",
    "addr:street": "大阪駅前地下街",
    "addr:suburb": "北区",
    "currency:JPY": "yes",
    "drink:juice": "served",
    "level": "-2",
    "location": "underground",
    "name": "梅田ジュースコーナー",
    "opening_hours": "Mo-Su 07:00-22:00",
    "operator": "サカイ",
    "payment:coins": "yes",
    "payment:icoca": "yes",
    "payment:notes": "yes",
    "phone": "+81 6 6342 7890",
    "shop": "beverages",
    "takeaway": "only",
    "website": "https://ai-sakai.com/umedajuice/"
  }
},
{
  "type": "node",
  "id": 6337315185,
  "lat": 34.7037208,
  "lon": 135.4952872,
  "timestamp": "2019-12-03T11:01:12Z",
  "version": 2,
  "changeset": 77870654,
  "user": "Rakkka",
  "uid": 4954428,
  "tags": {
    "level": "6",
    "name": "アイスモンスター",
    "name:en": "Ice Monster",
    "shop": "confectionery"
  }
},
{
  "type": "node",
  "id": 6417441521,
  "lat": 34.6987702,
  "lon": 135.4980840,
  "timestamp": "2019-04-20T08:38:02Z",
  "version": 1,
  "changeset": 69397618,
  "user": "Munkson",
  "uid": 212445,
  "tags": {
    "level": "-1",
    "male": "yes",
    "name": "cut-A",
    "shop": "hairdresser"
  }
},
{
  "type": "node",
  "id": 6417441522,
  "lat": 34.6989409,
  "lon": 135.4978248,
  "timestamp": "2019-04-20T08:38:02Z",
  "version": 1,
  "changeset": 69397618,
  "user": "Munkson",
  "uid": 212445,
  "tags": {
    "level": "1",
    "name": "武道具 明倫産業",
    "shop": "sports",
    "sport": "martial_arts"
  }
},
{
  "type": "node",
  "id": 6512375485,
  "lat": 34.6997424,
  "lon": 135.4952708,
  "timestamp": "2019-05-31T02:30:29Z",
  "version": 1,
  "changeset": 70790674,
  "user": "Brian773",
  "uid": 10044482,
  "tags": {
    "name:en": "Nikon Service Center",
    "shop": "photo"
  }
},
{
  "type": "node",
  "id": 6751632485,
  "lat": 34.7032891,
  "lon": 135.4945571,
  "timestamp": "2019-12-03T11:01:12Z",
  "version": 2,
  "changeset": 77870654,
  "user": "Rakkka",
  "uid": 4954428,
  "tags": {
    "level": "-1",
    "name": "ザ シティ ベーカリー",
    "name:en": "The City Bakery",
    "shop": "bakery"
  }
},
{
  "type": "node",
  "id": 7028385412,
  "lat": 34.7032818,
  "lon": 135.4960370,
  "timestamp": "2024-03-17T03:34:34Z",
  "version": 2,
  "changeset": 148756786,
  "user": "Lactone",
  "uid": 5578057,
  "tags": {
    "branch": "梅田",
    "brand": "ビームス",
    "brand:en": "Beams",
    "brand:ja": "ビームス",
    "brand:wikidata": "Q4876226",
    "level": "2",
    "name": "ビームス",
    "name:en": "Beams",
    "name:ja": "ビームス",
    "shop": "clothes"
  }
},
{
  "type": "node",
  "id": 7514508621,
  "lat": 34.7029785,
  "lon": 135.4986468,
  "timestamp": "2022-01-26T09:14:02Z",
  "version": 2,
  "changeset": 116614453,
  "user": "Rakkka",
  "uid": 4954428,
  "tags": {
    "branch": "阪急うめだ本店",
    "level": "1",
    "name": "コスメキッチンリュクス",
    "name:en": "Cosme Kitchen",
    "phone": "+81 6 6313 7930",
    "shop": "cosmetics",
    "website": "https://cosmekitchen.jp"
  }
},
{
  "type": "node",
  "id": 7516366439,
  "lat": 34.7030281,
  "lon": 135.4982954,
  "timestamp": "2022-01-26T09:14:02Z",
  "version": 2,
  "changeset": 116614453,
  "user": "Rakkka",
  "uid": 4954428,
  "tags": {
    "level": "-2",
    "name": "ルピシア",
    "shop": "tea"
  }
},
{
  "type": "node",
  "id": 7559250286,
  "lat": 34.7032277,
  "lon": 135.4963106,
  "timestamp": "2022-11-12T09:17:37Z",
  "version": 2,
  "changeset": 128804955,
  "user": "FlyingWitchDog",
  "uid": 14052707,
  "tags": {
    "branch": "ルクア大阪",
    "brand": "ロフト",
    "brand:en": "Loft",
    "brand:ja": "ロフト",
    "brand:wikidata": "Q5358428",
    "level": "8",
    "name": "ロフト",
    "name:en": "Loft",
    "name:ja": "ロフト",
    "shop": "variety_store"
  }
},
{
  "type": "node",
  "id": 8836160774,
  "lat": 34.7025111,
  "lon": 135.4958425,
  "timestamp": "2023-07-26T22:13:13Z",
  "version": 3,
  "changeset": 139059951,
  "user": "unnerving_duck",
  "uid": 19392124,
  "tags": {
    "branch": "キヨスクJR大阪駅１１番のりば西店",
    "brand": "7-ELEVEN",
    "brand:en": "7-ELEVEN",
    "brand:ja": "セブン-イレブン",
    "brand:wikidata": "Q259340",
    "brand:wikipedia": "en:7-Eleven",
    "level": "0",
    "name": "セブン-イレブン",
    "name:en": "7-Eleven",
    "name:ja": "セブン-イレブン",
    "official_name:en": "Seven-Eleven",
    "shop": "convenience"
  }
},
{
  "type": "node",
  "id": 8878597295,
  "lat": 34.7026985,
  "lon": 135.5004861,
  "timestamp": "2025-05-19T01:42:33Z",
  "version": 7,
  "changeset": 166453311,
  "user": "CR86",
  "uid": 1879503,
  "tags": {
    "brand": "FamilyMart",
    "brand:en": "FamilyMart",
    "brand:ja": "ファミリーマート",
    "brand:wikidata": "Q11247682",
    "brand:wikipedia": "en:FamilyMart",
    "level": "0",
    "name": "ファミリーマート",
    "name:en": "FamilyMart",
    "name:ja": "ファミリーマート",
    "opening_hours": "24/7",
    "shop": "convenience",
    "wheelchair": "yes"
  }
},
{
  "type": "node",
  "id": 8878597308,
  "lat": 34.7018121,
  "lon": 135.4954751,
  "timestamp": "2021-06-30T02:42:17Z",
  "version": 1,
  "changeset": 107176346,
  "user": "Rakkka",
  "uid": 4954428,
  "tags": {
    "brand": "エキマルシェ大阪店",
    "level": "0",
    "name": "デ トゥット パンデュース",
    "name:en": "de tout Painduce",
    "name:fr": "de tout Painduce",
    "shop": "bakery"
  }
},
{
  "type": "node",
  "id": 8882820915,
  "lat": 34.7021833,
  "lon": 135.5012475,
  "timestamp": "2023-12-05T12:50:20Z",
  "version": 2,
  "changeset": 144790966,
  "user": "okadatsuneo",
  "uid": 10163840,
  "tags": {
    "name": "南里文具店",
    "shop": "stationery"
  }
},
{
  "type": "node",
  "id": 8882848621,
  "lat": 34.7025408,
  "lon": 135.5013002,
  "timestamp": "2025-05-19T01:42:33Z",
  "version": 4,
  "changeset": 166453311,
  "user": "CR86",
  "uid": 1879503,
  "tags": {
    "branch": "ハートインヴィアイン梅田店",
    "brand": "7-ELEVEN",
    "brand:en": "7-ELEVEN",
    "brand:ja": "セブン-イレブン",
    "brand:wikidata": "Q259340",
    "brand:wikipedia": "en:7-Eleven",
    "name": "セブン-イレブン",
    "name:en": "7-Eleven",
    "name:ja": "セブン-イレブン",
    "official_name:en": "Seven-Eleven",
    "shop": "convenience"
  }
},
{
  "type": "node",
  "id": 8928684222,
  "lat": 34.6995893,
  "lon": 135.4975887,
  "timestamp": "2024-09-09T11:17:36Z",
  "version": 3,
  "changeset": 156389592,
  "user": "Rakkka",
  "uid": 4954428,
  "tags": {
    "branch": "com",
    "brand": "無印良品",
    "brand:en": "MUJI",
    "brand:ja": "無印良品",
    "brand:wikidata": "Q708789",
    "level": "-2",
    "name": "無印良品",
    "name:en": "MUJI",
    "name:ja": "無印良品",
    "official_name:en": "Ryohin Keikaku",
    "shop": "variety_store"
  }
},
{
  "type": "node",
  "id": 8928684223,
  "lat": 34.6995132,
  "lon": 135.4980996,
  "timestamp": "2024-09-09T11:17:36Z",
  "version": 2,
  "changeset": 156389592,
  "user": "Rakkka",
  "uid": 4954428,
  "tags": {
    "level": "-2",
    "name": "ケユカ",
    "name:en": "KEYUCA",
    "shop": "furniture"
  }
},
{
  "type": "node",
  "id": 8987123751,
  "lat": 34.7036324,
  "lon": 135.4970985,
  "timestamp": "2021-08-07T06:02:38Z",
  "version": 1,
  "changeset": 109294187,
  "user": "Rakkka",
  "uid": 4954428,
  "tags": {
    "name": "ブックスタジオ",
    "shop": "books"
  }
},
{
  "type": "node",
  "id": 9289756553,
  "lat": 34.7039598,
  "lon": 135.4963455,
  "timestamp": "2021-11-28T10:15:37Z",
  "version": 1,
  "changeset": 114318560,
  "user": "Rakkka",
  "uid": 4954428,
  "tags": {
    "clothes": "men",
    "level": "5",
    "name": "THE SHOP TK MIXPICE",
    "shop": "clothes"
  }
},
{
  "type": "node",
  "id": 9320739974,
  "lat": 34.7036682,
  "lon": 135.4946792,
  "timestamp": "2024-09-04T01:14:08Z",
  "version": 2,
  "changeset": 156164109,
  "user": "Rakkka",
  "uid": 4954428,
  "tags": {
    "level": "-1",
    "name": "うめきたセラー",
    "shop": "mall"
  }
},
{
  "type": "node",
  "id": 9355260797,
  "lat": 34.7011969,
  "lon": 135.4977001,
  "timestamp": "2021-12-21T10:04:07Z",
  "version": 1,
  "changeset": 115201240,
  "user": "Rakkka",
  "uid": 4954428,
  "tags": {
    "level": "6",
    "name": "生活の木",
    "shop": "houseware"
  }
},
{
  "type": "node",
  "id": 9355260798,
  "lat": 34.7010077,
  "lon": 135.4979932,
  "timestamp": "2021-12-21T10:04:07Z",
  "version": 1,
  "changeset": 115201240,
  "user": "Rakkka",
  "uid": 4954428,
  "tags": {
    "level": "6",
    "name": "アフタヌーンティーリビング",
    "shop": "furniture"
  }
},
{
  "type": "node",
  "id": 9355260801,
  "lat": 34.7006342,
  "lon": 135.4989809,
  "timestamp": "2022-11-12T09:17:37Z",
  "version": 2,
  "changeset": 128804955,
  "user": "FlyingWitchDog",
  "uid": 14052707,
  "tags": {
    "brand": "無印良品",
    "brand:en": "MUJI",
    "brand:ja": "無印良品",
    "brand:wikidata": "Q708789",
    "level": "6",
    "name": "無印良品",
    "name:en": "MUJI",
    "name:ja": "無印良品",
    "official_name:en": "Ryohin Keikaku",
    "shop": "variety_store"
  }
},
{
  "type": "node",
  "id": 9449454223,
  "lat": 34.7013313,
  "lon": 135.4977818,
  "timestamp": "2022-01-26T09:14:02Z",
  "version": 1,
  "changeset": 116614453,
  "user": "Rakkka",
  "uid": 4954428,
  "tags": {
    "branch": "阪神梅田本店",
    "level": "3",
    "name": "Biople by CosmeKitchen",
    "name:en": "Biople by CosmeKitchen",
    "shop": "houseware",
    "website": "https://store.biople.jp/"
  }
},
{
  "type": "node",
  "id": 9449454224,
  "lat": 34.7033104,
  "lon": 135.4962999,
  "timestamp": "2022-01-26T09:14:02Z",
  "version": 1,
  "changeset": 116614453,
  "user": "Rakkka",
  "uid": 4954428,
  "tags": {
    "branch": "ルクア大阪店",
    "level": "-1",
    "name": "Biople by CosmeKitchen",
    "name:en": "Biople by CosmeKitchen",
    "shop": "houseware",
    "website": "https://store.biople.jp/"
  }
},
{
  "type": "node",
  "id": 9598562180,
  "lat": 34.7021957,
  "lon": 135.4954992,
  "timestamp": "2025-05-19T01:42:33Z",
  "version": 3,
  "changeset": 166453311,
  "user": "CR86",
  "uid": 1879503,
  "tags": {
    "brand": "7-ELEVEN",
    "brand:en": "7-ELEVEN",
    "brand:ja": "セブン-イレブン",
    "brand:wikidata": "Q259340",
    "level": "0",
    "name": "セブン-イレブン",
    "name:en": "7-Eleven",
    "name:ja": "セブン-イレブン",
    "official_name:en": "Seven-Eleven",
    "shop": "convenience"
  }
},
{
  "type": "node",
  "id": 9598562181,
  "lat": 34.7019311,
  "lon": 135.4952967,
  "timestamp": "2024-09-05T13:13:50Z",
  "version": 2,
  "changeset": 156230950,
  "user": "Rakkka",
  "uid": 4954428,
  "tags": {
    "level": "0",
    "name": "ビオラル",
    "name:en": "BIO-RAL",
    "name:ja": "ビオラル",
    "shop": "supermarket",
    "website": "http://www.lifecorp.jp/store/bio-ral/"
  }
},
{
  "type": "node",
  "id": 9598562182,
  "lat": 34.7017691,
  "lon": 135.4950808,
  "timestamp": "2022-03-23T02:34:48Z",
  "version": 1,
  "changeset": 118800095,
  "user": "Rakkka",
  "uid": 4954428,
  "tags": {
    "level": "0",
    "name": "エキドンキ",
    "shop": "variety_store"
  }
},
{
  "type": "node",
  "id": 9840655056,
  "lat": 34.7027128,
  "lon": 135.4984322,
  "timestamp": "2023-10-30T06:25:51Z",
  "version": 3,
  "changeset": 143345835,
  "user": "b-jazz-bot",
  "uid": 9451067,
  "tags": {
    "level": "-2;-1;0;1;2;3;4;5;6;7;8;9;10;11;12",
    "name": "阪急うめだ本店",
    "name:en": "Hankyu Umeda Main Store",
    "name:es": "tienda de hankyu",
    "name:ja": "阪急うめだ本店",
    "name:ko": "한큐 백화점 우메다 본점",
    "opening_hours": "Mo-Th,Su 10:00-20:00; Fr-Sa 10:00-21:00",
    "shop": "department_store",
    "website": "https://www.hankyu-dept.co.jp/honten",
    "wheelchair": "yes",
    "wikidata": "Q11656794",
    "wikimedia_commons": "Category:Hankyu Department Stores Umeda main store",
    "wikipedia": "ja:阪急百貨店うめだ本店"
  }
},
{
  "type": "node",
  "id": 10297713928,
  "lat": 34.6997447,
  "lon": 135.4990987,
  "timestamp": "2023-07-23T08:33:02Z",
  "version": 2,
  "changeset": 138883364,
  "user": "okadatsuneo",
  "uid": 10163840,
  "tags": {
    "addr:block_number": "11",
    "addr:city": "大阪市",
    "addr:housename": "大阪駅前第4ビル",
    "addr:housenumber": "4",
    "addr:neighbourhood": "梅田一丁目",
    "addr:postcode": "530-0001",
    "addr:province": "大阪府",
    "addr:suburb": "北区",
    "branch": "大阪",
    "branch:en": "Osaka",
    "branch:ja": "大阪",
    "brand": "クロサワ楽器店",
    "brand:en": "Kurosawa Gakki",
    "brand:ja": "クロサワ楽器店",
    "level": "1",
    "name": "クロサワバイオリン",
    "name:en": "Kurosawa Violin",
    "name:ja": "クロサワバイオリン",
    "opening_hours": "Mo-Sa 11:00-20:00;Su,Ph 11:00-19:00",
    "phone": "045-317-3721",
    "shop": "musical_instrument",
    "website": "https://www.kurosawaviolin.com/"
  }
},
{
  "type": "node",
  "id": 10599107209,
  "lat": 34.6998969,
  "lon": 135.4988593,
  "timestamp": "2023-02-01T14:20:41Z",
  "version": 1,
  "changeset": 131965745,
  "user": "未設定",
  "uid": 17743588,
  "tags": {
    "name": "PCコンフル 梅田店",
    "shop": "computer"
  }
},
{
  "type": "node",
  "id": 10747504105,
  "lat": 34.6991266,
  "lon": 135.4934614,
  "timestamp": "2023-03-20T03:02:35Z",
  "version": 1,
  "changeset": 133880326,
  "user": "Adr1en",
  "uid": 3366289,
  "tags": {
    "shop": "bicycle"
  }
},
{
  "type": "node",
  "id": 10959644157,
  "lat": 34.6996454,
  "lon": 135.5005218,
  "timestamp": "2025-01-20T08:52:37Z",
  "version": 2,
  "changeset": 161553286,
  "user": "K_Sakanoshita",
  "uid": 389520,
  "tags": {
    "check_date": "2025-01-20",
    "name": "とり藤",
    "shop": "confectionery",
    "source": "Bing,2011-4"
  }
},
{
  "type": "node",
  "id": 11046323488,
  "lat": 34.6988638,
  "lon": 135.4997177,
  "timestamp": "2023-07-14T12:26:41Z",
  "version": 1,
  "changeset": 138505810,
  "user": "Rakkka",
  "uid": 4954428,
  "tags": {
    "level": "-2",
    "name": "占い館 アナスタシア",
    "shop": "psychic"
  }
},
{
  "type": "node",
  "id": 11046323489,
  "lat": 34.6988373,
  "lon": 135.4994488,
  "timestamp": "2023-07-14T12:26:41Z",
  "version": 1,
  "changeset": 138505810,
  "user": "Rakkka",
  "uid": 4954428,
  "tags": {
    "level": "1",
    "name": "ほしよみ堂",
    "shop": "psychic"
  }
},
{
  "type": "node",
  "id": 11046323490,
  "lat": 34.6988715,
  "lon": 135.4965292,
  "timestamp": "2023-07-14T12:26:41Z",
  "version": 1,
  "changeset": 138505810,
  "user": "Rakkka",
  "uid": 4954428,
  "tags": {
    "level": "0",
    "name": "ジャンヌダルク",
    "shop": "psychic"
  }
},
{
  "type": "node",
  "id": 11201798961,
  "lat": 34.6994065,
  "lon": 135.5005760,
  "timestamp": "2025-05-19T01:42:33Z",
  "version": 2,
  "changeset": 166453311,
  "user": "CR86",
  "uid": 1879503,
  "tags": {
    "brand": "Daily YAMAZAKI",
    "brand:en": "Daily YAMAZAKI",
    "brand:ja": "デイリーヤマザキ",
    "brand:wikidata": "Q5209392",
    "check_date": "2023-09-19",
    "name": "デイリーヤマザキ",
    "name:en": "Daily Yamazaki",
    "name:ja": "デイリーヤマザキ",
    "shop": "convenience"
  }
},
{
  "type": "node",
  "id": 11366112287,
  "lat": 34.7027339,
  "lon": 135.4956691,
  "timestamp": "2025-05-19T01:42:33Z",
  "version": 2,
  "changeset": 166453311,
  "user": "CR86",
  "uid": 1879503,
  "tags": {
    "branch": "ハートイン　JR大阪駅連絡口店",
    "brand": "7-ELEVEN",
    "brand:en": "7-ELEVEN",
    "brand:ja": "セブン-イレブン",
    "brand:wikidata": "Q259340",
    "level": "2",
    "name": "セブン-イレブン",
    "name:en": "7-Eleven",
    "name:ja": "セブン-イレブン",
    "official_name:en": "Seven-Eleven",
    "opening_hours": "Mo-Su 06:30-23:00",
    "shop": "convenience",
    "wheelchair": "yes"
  }
},
{
  "type": "node",
  "id": 11396024382,
  "lat": 34.7021963,
  "lon": 135.5013712,
  "timestamp": "2023-12-05T12:50:20Z",
  "version": 1,
  "changeset": 144790966,
  "user": "okadatsuneo",
  "uid": 10163840,
  "tags": {
    "name": "レイク",
    "shop": "money_lender"
  }
},
{
  "type": "node",
  "id": 11396097421,
  "lat": 34.7011312,
  "lon": 135.5004613,
  "timestamp": "2023-12-05T13:58:40Z",
  "version": 1,
  "changeset": 144792990,
  "user": "okadatsuneo",
  "uid": 10163840,
  "tags": {
    "name": "ploom station",
    "shop": "tobacco"
  }
},
{
  "type": "node",
  "id": 11396097423,
  "lat": 34.7014703,
  "lon": 135.5004157,
  "timestamp": "2025-05-19T01:42:33Z",
  "version": 2,
  "changeset": 166453311,
  "user": "CR86",
  "uid": 1879503,
  "tags": {
    "brand": "LAWSON",
    "brand:en": "LAWSON",
    "brand:ja": "ローソン",
    "brand:wikidata": "Q1557223",
    "name": "ローソン",
    "name:en": "Lawson",
    "name:ja": "ローソン",
    "name:ja-Hira": "ろーそん",
    "name:ja-Latn": "Rōson",
    "operator": "ローソン",
    "shop": "convenience"
  }
},
{
  "type": "node",
  "id": 11472452557,
  "lat": 34.7031232,
  "lon": 135.4970529,
  "timestamp": "2025-05-19T01:42:33Z",
  "version": 2,
  "changeset": 166453311,
  "user": "CR86",
  "uid": 1879503,
  "tags": {
    "branch": "キヨスクJR大阪駅御堂筋口内南店",
    "brand": "7-ELEVEN",
    "brand:en": "7-ELEVEN",
    "brand:ja": "セブン-イレブン",
    "brand:wikidata": "Q259340",
    "name": "セブン-イレブン",
    "name:en": "7-Eleven",
    "name:ja": "セブン-イレブン",
    "official_name:en": "Seven-Eleven",
    "payment:cash": "yes",
    "payment:visa": "yes",
    "payment:visa_debit": "yes",
    "phone": "+81 6 4797 3105",
    "shop": "convenience"
  }
},
{
  "type": "node",
  "id": 11500444169,
  "lat": 34.7000407,
  "lon": 135.5015333,
  "timestamp": "2025-05-19T01:42:33Z",
  "version": 2,
  "changeset": 166453311,
  "user": "CR86",
  "uid": 1879503,
  "tags": {
    "addr:postcode": "530-0057",
    "branch": "アパリゾート大阪梅田駅タワー店",
    "brand": "LAWSON",
    "brand:en": "LAWSON",
    "brand:ja": "ローソン",
    "brand:wikidata": "Q1557223",
    "level": "4",
    "name": "ローソン",
    "name:en": "Lawson",
    "name:ja": "ローソン",
    "opening_hours": "24/7",
    "phone": "+81 6-6314-0115",
    "shop": "convenience",
    "website": "http://e-map.ne.jp"
  }
},
{
  "type": "node",
  "id": 11576327501,
  "lat": 34.6990986,
  "lon": 135.4963386,
  "timestamp": "2024-02-01T11:49:32Z",
  "version": 1,
  "changeset": 146942727,
  "user": "Munkson",
  "uid": 212445,
  "tags": {
    "female": "yes",
    "level": "-1",
    "male": "yes",
    "name": "Galette",
    "shop": "hairdresser"
  }
},
{
  "type": "node",
  "id": 11736587558,
  "lat": 34.7026132,
  "lon": 135.4945180,
  "timestamp": "2024-09-05T13:13:50Z",
  "version": 3,
  "changeset": 156230950,
  "user": "Rakkka",
  "uid": 4954428,
  "tags": {
    "addr:block_number": "1",
    "addr:city": "大阪市",
    "addr:housenumber": "3",
    "addr:neighbourhood": "梅田三丁目",
    "addr:postcode": "530-8558",
    "addr:province": "大阪府",
    "addr:suburb": "北区",
    "air_conditioning": "yes",
    "branch": "ルクア イーレ店",
    "currency:JPY": "yes",
    "level": "6",
    "name": "BASIC AND ACCENT",
    "payment:cash": "yes",
    "payment:mastercard": "yes",
    "payment:mastercard_contactless": "yes",
    "phone": "+81 6 6151 2167",
    "shop": "houseware"
  }
},
{
  "type": "node",
  "id": 11736587560,
  "lat": 34.7030016,
  "lon": 135.4948454,
  "timestamp": "2024-09-05T13:13:50Z",
  "version": 3,
  "changeset": 156230950,
  "user": "Rakkka",
  "uid": 4954428,
  "tags": {
    "addr:block_number": "1",
    "addr:city": "大阪市",
    "addr:housenumber": "3",
    "addr:neighbourhood": "梅田三丁目",
    "addr:postcode": "530-0001",
    "addr:province": "大阪府",
    "addr:suburb": "北区",
    "air_conditioning": "yes",
    "branch": "大阪店",
    "currency:JPY": "yes",
    "level": "6",
    "name": "UNITED TOKYO",
    "payment:cash": "yes",
    "payment:mastercard": "yes",
    "phone": "+81 6 6151 1440",
    "shop": "clothes",
    "toilets": "no",
    "website": "https://united-tokyo.com"
  }
},
{
  "type": "node",
  "id": 11739057256,
  "lat": 34.7001375,
  "lon": 135.4981211,
  "timestamp": "2024-03-17T15:13:20Z",
  "version": 1,
  "changeset": 148776674,
  "user": "Lactone",
  "uid": 5578057,
  "tags": {
    "air_conditioning": "yes",
    "branch": "ディアモール大阪",
    "clothes": "suits",
    "currency:JPY": "yes",
    "level": "-2",
    "name": "オリヒカ",
    "payment:cash": "yes",
    "payment:visa": "yes",
    "phone": "+81 6 6348 4878",
    "shop": "clothes"
  }
},
{
  "type": "node",
  "id": 11757341656,
  "lat": 34.6991810,
  "lon": 135.4994432,
  "timestamp": "2024-03-24T07:35:32Z",
  "version": 1,
  "changeset": 149077240,
  "user": "Lactone",
  "uid": 5578057,
  "tags": {
    "addr:block_number": "1",
    "addr:city": "大阪市",
    "addr:housenumber": "3",
    "addr:neighbourhood": "梅田一丁目",
    "addr:province": "大阪府",
    "addr:suburb": "北区",
    "air_conditioning": "yes",
    "branch": "梅田店",
    "currency:JPY": "yes",
    "female": "yes",
    "level": "0",
    "male": "yes",
    "name": "Cloe",
    "phone": "+81 6 6347 1008",
    "self_checkout": "no",
    "shop": "hairdresser"
  }
},
{
  "type": "node",
  "id": 11834471402,
  "lat": 34.7029685,
  "lon": 135.4947582,
  "timestamp": "2024-09-05T13:13:50Z",
  "version": 2,
  "changeset": 156230950,
  "user": "Rakkka",
  "uid": 4954428,
  "tags": {
    "air_conditioning": "yes",
    "currency:JPY": "yes",
    "level": "4",
    "name": "nano universe",
    "name:ja": "ナノ・ユニバース",
    "payment:cash": "yes",
    "payment:mastercard": "yes",
    "payment:mastercard_contactless": "yes",
    "phone": "+81 6 6151 1473",
    "self_checkout": "no",
    "shop": "clothes"
  }
},
{
  "type": "node",
  "id": 11834471403,
  "lat": 34.7026401,
  "lon": 135.4948216,
  "timestamp": "2024-09-05T13:13:50Z",
  "version": 2,
  "changeset": 156230950,
  "user": "Rakkka",
  "uid": 4954428,
  "tags": {
    "air_conditioning": "yes",
    "branch": "ルクアイーレ店",
    "brand": "ユニクロ",
    "brand:en": "UNIQLO",
    "brand:ja": "ユニクロ",
    "brand:wikidata": "Q26070",
    "level": "-1",
    "mobile": "+81 50 3355 6907",
    "name": "ユニクロ",
    "name:en": "UNIQLO",
    "name:ja": "ユニクロ",
    "payment:cash": "yes",
    "payment:mastercard": "yes",
    "payment:mastercard_contactless": "yes",
    "self_checkout": "yes",
    "shop": "clothes",
    "website": "https://www.uniqlo.com"
  }
},
{
  "type": "node",
  "id": 11834471404,
  "lat": 34.6996537,
  "lon": 135.4945942,
  "timestamp": "2024-04-21T07:43:10Z",
  "version": 1,
  "changeset": 150290113,
  "user": "Lactone",
  "uid": 5578057,
  "tags": {
    "air_conditioning": "yes",
    "level": "2",
    "name": "grand musée",
    "name:ja": "グラン ミュゼ",
    "phone": "+81 6 4797 3230",
    "self_checkout": "no",
    "shop": "interior_decoration",
    "toilets": "no"
  }
},
{
  "type": "node",
  "id": 11834471405,
  "lat": 34.7027029,
  "lon": 135.4943383,
  "timestamp": "2024-09-05T13:13:50Z",
  "version": 2,
  "changeset": 156230950,
  "user": "Rakkka",
  "uid": 4954428,
  "tags": {
    "brand": "GU",
    "brand:en": "GU",
    "brand:ja": "ジーユー",
    "brand:wikidata": "Q5512642",
    "level": "-1",
    "name": "GU",
    "name:en": "GU",
    "name:ja": "ジーユー",
    "shop": "clothes"
  }
},
{
  "type": "node",
  "id": 11968248369,
  "lat": 34.7018787,
  "lon": 135.4965177,
  "timestamp": "2024-06-10T05:09:02Z",
  "version": 1,
  "changeset": 152478711,
  "user": "NSJ0275",
  "uid": 1989367,
  "tags": {
    "shop": "department_store"
  }
},
{
  "type": "node",
  "id": 12037307537,
  "lat": 34.6998628,
  "lon": 135.5002180,
  "timestamp": "2024-07-06T09:27:45Z",
  "version": 1,
  "changeset": 153615984,
  "user": "K_Sakanoshita",
  "uid": 389520,
  "tags": {
    "check_date": "2024-07-06",
    "name": "アイトピア",
    "shop": "optician"
  }
},
{
  "type": "node",
  "id": 12037307540,
  "lat": 34.6997571,
  "lon": 135.5002353,
  "timestamp": "2024-07-06T09:27:45Z",
  "version": 1,
  "changeset": 153615984,
  "user": "K_Sakanoshita",
  "uid": 389520,
  "tags": {
    "check_date": "2024-07-06",
    "name": "SHIPPO",
    "shop": "jewelry"
  }
},
{
  "type": "node",
  "id": 12037307541,
  "lat": 34.6997622,
  "lon": 135.5002623,
  "timestamp": "2024-07-06T09:27:45Z",
  "version": 1,
  "changeset": 153615984,
  "user": "K_Sakanoshita",
  "uid": 389520,
  "tags": {
    "check_date": "2024-07-06",
    "name": "Apiuz hair",
    "shop": "beauty"
  }
},
{
  "type": "node",
  "id": 12079442299,
  "lat": 34.7022789,
  "lon": 135.4982934,
  "timestamp": "2025-05-19T01:42:33Z",
  "version": 4,
  "changeset": 166453311,
  "user": "CR86",
  "uid": 1879503,
  "tags": {
    "amenity": "fast_food",
    "brand": "ミスタードーナツ",
    "brand:en": "Mister Donut",
    "brand:ja": "ミスタードーナツ",
    "brand:wikidata": "Q1065819",
    "cuisine": "donut",
    "level": "-1",
    "name": "ミスタードーナツ",
    "name:en": "Mister Donut",
    "name:ja": "ミスタードーナツ",
    "shop": "confectionery",
    "takeaway": "yes"
  }
},
{
  "type": "node",
  "id": 12095159226,
  "lat": 34.7013341,
  "lon": 135.4944116,
  "timestamp": "2025-05-19T01:42:33Z",
  "version": 3,
  "changeset": 166453311,
  "user": "CR86",
  "uid": 1879503,
  "tags": {
    "brand": "7-ELEVEN",
    "brand:en": "7-ELEVEN",
    "brand:ja": "セブン-イレブン",
    "brand:wikidata": "Q259340",
    "level": "0",
    "name": "セブン-イレブン",
    "name:en": "7-Eleven",
    "name:ja": "セブン-イレブン",
    "official_name:en": "Seven-Eleven",
    "shop": "convenience"
  }
},
{
  "type": "node",
  "id": 12095159227,
  "lat": 34.7006246,
  "lon": 135.4940012,
  "timestamp": "2024-08-06T12:05:12Z",
  "version": 1,
  "changeset": 154890176,
  "user": "Rakkka",
  "uid": 4954428,
  "tags": {
    "name": "KITTE大阪",
    "name:en": "KITTE OSAKA",
    "name:ja": "KITTE大阪",
    "shop": "mall"
  }
},
{
  "type": "node",
  "id": 12107526574,
  "lat": 34.6986740,
  "lon": 135.4975196,
  "timestamp": "2024-08-13T05:45:21Z",
  "version": 1,
  "changeset": 155177646,
  "user": "K_Sakanoshita",
  "uid": 389520,
  "tags": {
    "check_date": "2024-08-13",
    "level": "-2",
    "name": "トキワ商会",
    "shop": "shoes"
  }
},
{
  "type": "node",
  "id": 12154532612,
  "lat": 34.7032316,
  "lon": 135.4948890,
  "timestamp": "2024-09-04T01:14:08Z",
  "version": 1,
  "changeset": 156164109,
  "user": "Rakkka",
  "uid": 4954428,
  "tags": {
    "level": "-1",
    "name": "ファミリマート",
    "shop": "convenience"
  }
},
{
  "type": "node",
  "id": 12157787194,
  "lat": 34.7017944,
  "lon": 135.4968873,
  "timestamp": "2024-10-26T23:28:24Z",
  "version": 2,
  "changeset": 158394867,
  "user": "higa4",
  "uid": 162590,
  "tags": {
    "level": "12",
    "name": "ニンテンドーオオサカ",
    "name:en": "Nintendo OSAKA",
    "shop": "toys",
    "wikidata": "Q125055846"
  }
},
{
  "type": "node",
  "id": 12167701095,
  "lat": 34.7005187,
  "lon": 135.4968550,
  "timestamp": "2024-09-10T08:45:52Z",
  "version": 1,
  "changeset": 156428678,
  "user": "K_Sakanoshita",
  "uid": 389520,
  "tags": {
    "check_date": "2024-09-10",
    "name": "HIS",
    "shop": "travel_agency"
  }
},
{
  "type": "node",
  "id": 12167701321,
  "lat": 34.6997448,
  "lon": 135.4953771,
  "timestamp": "2024-09-10T08:50:54Z",
  "version": 1,
  "changeset": 156428865,
  "user": "K_Sakanoshita",
  "uid": 389520,
  "tags": {
    "brand": "Bulgari",
    "brand:wikidata": "Q752515",
    "check_date": "2024-09-10",
    "name": "Bvlgari",
    "shop": "fashion_accessories"
  }
},
{
  "type": "node",
  "id": 12167701964,
  "lat": 34.7000278,
  "lon": 135.4953535,
  "timestamp": "2024-09-10T08:51:30Z",
  "version": 1,
  "changeset": 156428892,
  "user": "K_Sakanoshita",
  "uid": 389520,
  "tags": {
    "brand": "Louis Vuitton",
    "brand:wikidata": "Q191485",
    "check_date": "2024-09-10",
    "name": "Louis Vuitton",
    "shop": "clothes"
  }
},
{
  "type": "node",
  "id": 12167705037,
  "lat": 34.6993826,
  "lon": 135.4954280,
  "timestamp": "2024-09-10T08:49:31Z",
  "version": 1,
  "changeset": 156428802,
  "user": "K_Sakanoshita",
  "uid": 389520,
  "tags": {
    "check_date": "2024-09-10",
    "name": "大黒屋",
    "shop": "pawnbroker"
  }
},
{
  "type": "node",
  "id": 12167706029,
  "lat": 34.7006787,
  "lon": 135.4940505,
  "timestamp": "2024-09-10T09:02:14Z",
  "version": 1,
  "changeset": 156429316,
  "user": "K_Sakanoshita",
  "uid": 389520,
  "tags": {
    "check_date": "2024-09-10",
    "level": "1",
    "name": "三輪山本",
    "shop": "gift"
  }
},
{
  "type": "node",
  "id": 12167706030,
  "lat": 34.7005947,
  "lon": 135.4940971,
  "timestamp": "2024-09-10T09:02:14Z",
  "version": 1,
  "changeset": 156429316,
  "user": "K_Sakanoshita",
  "uid": 389520,
  "tags": {
    "check_date": "2024-09-10",
    "name": "雪国商店",
    "shop": "alcohol"
  }
},
{
  "type": "node",
  "id": 12167706031,
  "lat": 34.7005457,
  "lon": 135.4942019,
  "timestamp": "2024-09-10T09:02:14Z",
  "version": 1,
  "changeset": 156429316,
  "user": "K_Sakanoshita",
  "uid": 389520,
  "tags": {
    "check_date": "2024-09-10",
    "name": "兵庫県おみやげ発掘屋",
    "shop": "gift"
  }
},
{
  "type": "node",
  "id": 12167706032,
  "lat": 34.7013253,
  "lon": 135.4960344,
  "timestamp": "2024-09-10T09:05:04Z",
  "version": 1,
  "changeset": 156429436,
  "user": "K_Sakanoshita",
  "uid": 389520,
  "tags": {
    "brand": "Gucci",
    "brand:wikidata": "Q178516",
    "check_date": "2024-09-10",
    "level": "1",
    "name": "Gucci",
    "shop": "clothes"
  }
},
{
  "type": "node",
  "id": 12167712991,
  "lat": 34.7009389,
  "lon": 135.4943566,
  "timestamp": "2024-09-10T08:58:47Z",
  "version": 1,
  "changeset": 156429174,
  "user": "K_Sakanoshita",
  "uid": 389520,
  "tags": {
    "check_date": "2024-09-10",
    "level": "1",
    "name": "荻野屋",
    "shop": "gift"
  }
},
{
  "type": "node",
  "id": 12167712992,
  "lat": 34.7008735,
  "lon": 135.4943980,
  "timestamp": "2024-09-10T08:58:47Z",
  "version": 1,
  "changeset": 156429174,
  "user": "K_Sakanoshita",
  "uid": 389520,
  "tags": {
    "check_date": "2024-09-10",
    "name": "かごしま屋",
    "shop": "gift"
  }
},
{
  "type": "node",
  "id": 12167730150,
  "lat": 34.7005876,
  "lon": 135.4943547,
  "timestamp": "2024-09-10T09:03:03Z",
  "version": 1,
  "changeset": 156429358,
  "user": "K_Sakanoshita",
  "uid": 389520,
  "tags": {
    "check_date": "2024-09-10",
    "name": "出雲しめなわや",
    "shop": "gift"
  }
},
{
  "type": "node",
  "id": 12167730151,
  "lat": 34.7007439,
  "lon": 135.4944761,
  "timestamp": "2024-09-10T09:03:03Z",
  "version": 1,
  "changeset": 156429358,
  "user": "K_Sakanoshita",
  "uid": 389520,
  "tags": {
    "check_date": "2024-09-10",
    "name": "とさとさ",
    "shop": "gift"
  }
},
{
  "type": "node",
  "id": 12546345176,
  "lat": 34.7026242,
  "lon": 135.4945790,
  "timestamp": "2025-01-31T12:47:30Z",
  "version": 1,
  "changeset": 161976005,
  "user": "K_Sakanoshita",
  "uid": 389520,
  "tags": {
    "brand": "FamilyMart",
    "brand:en": "FamilyMart",
    "brand:ja": "ファミリーマート",
    "brand:wikidata": "Q11247682",
    "check_date": "2025-01-31",
    "name": "ファミリーマート",
    "name:en": "FamilyMart",
    "name:ja": "ファミリーマート",
    "shop": "convenience"
  }
},
{
  "type": "node",
  "id": 12615165953,
  "lat": 34.7008429,
  "lon": 135.4946946,
  "timestamp": "2025-02-24T06:16:19Z",
  "version": 1,
  "changeset": 162877251,
  "user": "taki3hira",
  "uid": 1948193,
  "tags": {
    "level": "0",
    "name": "MIKIMOTO",
    "shop": "jewelry"
  }
},
{
  "type": "node",
  "id": 12655220501,
  "lat": 34.7024501,
  "lon": 135.4945661,
  "timestamp": "2025-03-15T14:19:55Z",
  "version": 3,
  "changeset": 163652776,
  "user": "mueschel",
  "uid": 616774,
  "tags": {
    "addr:city": "大阪市",
    "addr:full": "〒530-8558大阪府大阪市北区梅田3-1-3ルクアイール 9F",
    "addr:full:en": "9F, Lucua IRE, 3-1-3 Umeda, Kita-ku, Osaka City, Osaka Prefecture 530-8558, Japan",
    "addr:postcode": "530-8558",
    "brand": "CIO",
    "contact:instagram": "ciostore_umeda",
    "contact:line": "https://page.line.me/644wgdcp",
    "level": "8",
    "name": "CIO Store",
    "note": "Located in LUCUA 1100 (ルクア イーレ) 9F, within Osaka Station City North Gate Building.",
    "opening_hours": "Mo-Su 10:30-20:30",
    "phone": "+81-6-6136-5770",
    "shop": "electronics",
    "start_date": "2025-03-06 10:30",
    "website": "https://connectinternationalone.co.jp/cio-store",
    "wheelchair": "yes"
  }
},
{
  "type": "node",
  "id": 12876707901,
  "lat": 34.7034703,
  "lon": 135.4964972,
  "timestamp": "2025-05-31T19:19:01Z",
  "version": 2,
  "changeset": 167026019,
  "user": "kingughidora",
  "uid": 22955515,
  "tags": {
    "name": "Mansion Kayser",
    "shop": "bakery"
  }
},
{
  "type": "way",
  "id": 181049898,
  "timestamp": "2016-04-04T13:11:02Z",
  "version": 3,
  "changeset": 38290726,
  "user": "yasunari",
  "uid": 171028,
  "nodes": [
    1915020727,
    1915020728,
    1915020720,
    1915020718,
    1915020727
  ],
  "tags": {
    "building": "retail",
    "name": "中宮 画廊",
    "shop": "art",
    "source": "Bing,2011-4"
  }
},
{
  "type": "way",
  "id": 363682135,
  "timestamp": "2024-10-03T13:06:47Z",
  "version": 5,
  "changeset": 157418406,
  "user": "Rakkka",
  "uid": 4954428,
  "nodes": [
    3678381355,
    3678381356,
    3678381357,
    3678381358,
    12218696638,
    3678381355
  ],
  "tags": {
    "addr:block_number": "7",
    "addr:city": "大阪市",
    "addr:housenumber": "31",
    "addr:neighbourhood": "角田町",
    "building": "retail",
    "level": "0;1",
    "name": "中央コンタクト",
    "phone": "06-6361-0727",
    "shop": "optician",
    "wheelchair": "no"
  }
},
{
  "type": "way",
  "id": 514359564,
  "timestamp": "2023-12-03T23:28:18Z",
  "version": 2,
  "changeset": 144735454,
  "user": "okadatsuneo",
  "uid": 10163840,
  "nodes": [
    5025388235,
    5025388232,
    5025388233,
    5025388234,
    5025388235
  ],
  "tags": {
    "building": "retail",
    "name": "タムラ",
    "note": "ボタン店",
    "shop": "sewing"
  }
},
{
  "type": "way",
  "id": 588689750,
  "timestamp": "2024-10-14T11:37:59Z",
  "version": 4,
  "changeset": 157872612,
  "user": "Rakkka",
  "uid": 4954428,
  "nodes": [
    5306276246,
    5306276258,
    5306276257,
    5306276260,
    5306276259,
    12250321006,
    12250321005,
    1740980792,
    4885165794,
    4885165798,
    4885165796,
    4885165797,
    5306276271,
    5306276272,
    4885165795,
    1740980790,
    1740980798,
    5306276269,
    5306276268,
    1740980760,
    1740980754,
    4575065479,
    1740980807,
    4575065478,
    1740980805,
    1740980803,
    4575065477,
    4575065476,
    5306276266,
    4575065470,
    5306276246
  ],
  "tags": {
    "building:levels": "6",
    "building:part": "yes",
    "name": "ハービスPLAZA",
    "name:en": "HERBIS PLAZA",
    "shop": "mall"
  }
},
{
  "type": "way",
  "id": 588689753,
  "timestamp": "2024-09-09T00:51:43Z",
  "version": 6,
  "changeset": 156372954,
  "user": "Rakkka",
  "uid": 4954428,
  "nodes": [
    1893125221,
    12162921449,
    12162921450,
    4885165811,
    5306276285,
    4930281616,
    5306276273,
    4930281617,
    4930281618,
    4930281611,
    4930281619,
    4930281620,
    4930283821,
    4930283822,
    5306276286,
    5306276287,
    4930283823,
    5306276274,
    4885165803,
    12162921448,
    1740975370,
    1740975350,
    1740975368,
    1740975279,
    5306276289,
    12164626824,
    3254715452,
    1740975331,
    3254715451,
    1740975313,
    4885165807,
    1893125221
  ],
  "tags": {
    "building:levels": "7",
    "building:part": "yes",
    "name": "ハービスPLAZA ENT",
    "name:en": "HERBIS PLAZA ENT",
    "name:ko": "하비스 플라자",
    "opening_hours": "Mo-Su 11:00-20:00",
    "shop": "mall",
    "toilets:wheelchair": "yes",
    "website": "https://www.herbis.jp/",
    "wheelchair": "yes"
  }
},
{
  "type": "way",
  "id": 1304559274,
  "timestamp": "2024-07-30T02:19:47Z",
  "version": 1,
  "changeset": 154585772,
  "user": "Rakkka",
  "uid": 4954428,
  "nodes": [
    12082099557,
    12082099556,
    12082099550,
    12082099555,
    12082099554,
    12082099553,
    12082099552,
    12082099551,
    12082099557
  ],
  "tags": {
    "layer": "-1",
    "name": "ドージマ地下センター",
    "name:en": "Dojima Underground Shopping Center",
    "name:ja": "ドージマ地下センター",
    "shop": "mall"
  }
},
{
  "type": "way",
  "id": 1304559275,
  "timestamp": "2024-07-30T02:19:47Z",
  "version": 1,
  "changeset": 154585772,
  "user": "Rakkka",
  "uid": 4954428,
  "nodes": [
    12082104496,
    12082104495,
    12082099560,
    12082104494,
    12082104493,
    12082104492,
    12082104491,
    12082104490,
    12082104489,
    12082104488,
    12082104487,
    12082099558,
    12082104486,
    12082099559,
    12082104485,
    12082104484,
    12082104483,
    12082099566,
    12082104482,
    12082104481,
    12082104480,
    12082104479,
    12082099565,
    12082104478,
    12082099564,
    12082104477,
    12082104476,
    12082104475,
    12082099563,
    12082104474,
    12082104473,
    12082099562,
    12082104472,
    12082104471,
    12082099567,
    12082104469,
    12082104470,
    12082099561,
    12082099568,
    12082104496
  ],
  "tags": {
    "layer": "-1",
    "name": "ディアモール大阪",
    "name:en": "Diamor Osaka",
    "name:ja": "ディアモール大阪",
    "shop": "mall",
    "website": "https://www.diamor.jp/"
  }
},
{
  "type": "way",
  "id": 1304559276,
  "timestamp": "2024-09-27T12:02:30Z",
  "version": 3,
  "changeset": 157167701,
  "user": "Rakkka",
  "uid": 4954428,
  "nodes": [
    12082104544,
    12082104538,
    12082104543,
    12082104517,
    12082104518,
    12082104542,
    12082104497,
    12082104515,
    12082104513,
    12082104500,
    12082104504,
    12082104502,
    12082104501,
    12082104503,
    12204907675,
    12204907674,
    12082104498,
    12082104505,
    12082104514,
    12082104512,
    12082104509,
    12082104508,
    12082104507,
    12082104511,
    12082104506,
    12082104510,
    12082104535,
    12082104534,
    12082104531,
    12082104528,
    12082104529,
    12082104530,
    12082104523,
    12082104520,
    12082104522,
    12082104521,
    12082104519,
    12082104536,
    12082104525,
    12082104526,
    12082104524,
    12082104527,
    12082104533,
    12082104532,
    12082104537,
    12082104541,
    12082104540,
    12082104539,
    12082104516,
    12082104544
  ],
  "tags": {
    "layer": "-1",
    "level": "-1",
    "name": "Whityうめだ",
    "name:en": "Whity Umeda",
    "name:ja": "ホワイティうめだ",
    "shop": "mall",
    "website": "https://whity.osaka-chikagai.jp/"
  }
},
{
  "type": "way",
  "id": 1304559277,
  "timestamp": "2024-09-18T04:46:36Z",
  "version": 2,
  "changeset": 156754645,
  "user": "Rakkka",
  "uid": 4954428,
  "nodes": [
    12082104548,
    12082104547,
    12082104546,
    12082104545,
    12082104548
  ],
  "tags": {
    "addr:block_number": "8",
    "addr:housenumber": "6",
    "addr:neighbourhood": "角田町",
    "addr:postcode": "530-0017",
    "addr:suburb": "北区",
    "layer": "-1",
    "level": "-1",
    "name": "ekimo梅田",
    "name:en": "ekimo umeda",
    "name:ja": "ekimo梅田",
    "shop": "mall",
    "website": "http://www.ekimo.jp/umeda/"
  }
},
{
  "type": "way",
  "id": 1313244350,
  "timestamp": "2025-05-14T20:15:26Z",
  "version": 3,
  "changeset": 166275596,
  "user": "Teuchi Soba Sobashiki",
  "uid": 22664500,
  "nodes": [
    12155411384,
    12155411383,
    12155411382,
    12155411381,
    12155411384
  ],
  "tags": {
    "addr:block_number": "3-1-3",
    "addr:city": "大阪市",
    "addr:housenumber": "10F, LUCUA",
    "addr:neighbourhood": "Umeda, Kita-ku, Osaka-shi, Osaka 530-0001, Japan",
    "addr:postcode": "530-0001",
    "addr:province": "大阪府",
    "addr:quarter": "梅田",
    "addr:suburb": "北区",
    "air_conditioning": "yes",
    "building": "ishi-usubiki_nihachi_soba_sobashiki_lucua_osaka",
    "level": "-2;-1;0;1;2;3;4;5;6;7;8;9",
    "name": "Ishi-usubiki Nihachi Soba Sobashiki LUCUA Osaka",
    "name:en": "LUCUA 1100",
    "name:ja": "Ishi-usubiki Nihachi Soba Sobashiki LUCUA Osaka",
    "shop": "mall",
    "toilets": "yes",
    "toilets:wheelchair": "yes",
    "wheelchair": "yes",
    "wikidata": "Q11226222",
    "wikipedia": "ja:ルクア1100"
  }
},
{
  "type": "way",
  "id": 1313244351,
  "timestamp": "2024-09-04T13:11:05Z",
  "version": 1,
  "changeset": 156186213,
  "user": "Rakkka",
  "uid": 4954428,
  "nodes": [
    12155411391,
    12155411390,
    12155411389,
    12155411388,
    12155411387,
    12155411386,
    12155411385,
    12155411391
  ],
  "tags": {
    "air_conditioning": "yes",
    "level": "-2;-1;0;1;2;3;4;5;6;7;8;9",
    "name": "ルクア大阪",
    "name:en": "LUCUA osaka",
    "name:ja": "ルクア大阪",
    "phone": "+81 6 6151 1111",
    "shop": "mall",
    "toilets": "yes",
    "toilets:wheelchair": "yes",
    "wheelchair": "yes"
  }
},
{
  "type": "way",
  "id": 1313495257,
  "timestamp": "2024-09-05T13:13:50Z",
  "version": 1,
  "changeset": 156230950,
  "user": "Rakkka",
  "uid": 4954428,
  "nodes": [
    12157787193,
    12157787187,
    12157787192,
    12157787191,
    12157787189,
    12157787188,
    12157787190,
    12157787193
  ],
  "tags": {
    "level": "0",
    "name": "エキマルシェ大阪",
    "name:en": "Eki Marche Osaka",
    "shop": "mall",
    "toilets:wheelchair": "yes",
    "wheelchair": "yes"
  }
},
{
  "type": "way",
  "id": 1316299601,
  "timestamp": "2024-09-18T04:46:36Z",
  "version": 1,
  "changeset": 156754645,
  "user": "Rakkka",
  "uid": 4954428,
  "nodes": [
    12183308990,
    12183308989,
    12183308988,
    12183308986,
    12183308985,
    12183308987,
    12183308990
  ],
  "tags": {
    "layer": "-1",
    "level": "-1",
    "name": "阪急サン広場地下通り",
    "name:en": "Hankyu SUN Plaza Underground Street",
    "name:ja": "阪急サン広場地下通り",
    "shop": "mall"
  }
}

  ]
}
