{
  "version": 0.6,
  "generator": "Overpass API 0.7.62.7 375dc00a",
  "osm3s": {
    "timestamp_osm_base": "2025-07-10T04:00:15Z",
    "copyright": "The data included in this document is from www.openstreetmap.org. The data is made available under ODbL."
  },
  "elements": [

{
  "type": "node",
  "id": 2365110377,
  "lat": 35.6818040,
  "lon": 139.7717759,
  "timestamp": "2025-07-08T02:28:29Z",
  "version": 19,
  "changeset": 168628561,
  "user": "gc27",
  "uid": 7130304,
  "tags": {
    "addr:block_number": "3",
    "addr:city": "中央区",
    "addr:housenumber": "21",
    "addr:neighbourhood": "日本橋二丁目",
    "addr:postcode": "103-0027",
    "addr:province": "東京都",
    "atm": "yes",
    "branch": "日本橋二丁目店",
    "brand": "7-ELEVEN",
    "brand:en": "7-ELEVEN",
    "brand:ja": "セブン-イレブン",
    "brand:wikidata": "Q259340",
    "brand:wikipedia": "en:7-Eleven",
    "internet_access": "wlan",
    "level": "0",
    "name": "セブン-イレブン",
    "name:en": "7-Eleven",
    "name:ja": "セブン-イレブン",
    "name:ja_rm": "Sebun Irebun",
    "name:zh": "7-11便利店",
    "official_name:en": "Seven-Eleven",
    "opening_hours": "24/7",
    "operator": "セブンイレブン・ジャパン",
    "phone": "+81 3-5201-5518",
    "shop": "convenience",
    "source": "(URL) 2015",
    "website": "https://www.sej.co.jp/",
    "wheelchair": "yes"
  }
},
{
  "type": "node",
  "id": 2365111053,
  "lat": 35.6817170,
  "lon": 139.7714550,
  "timestamp": "2025-03-24T04:38:33Z",
  "version": 10,
  "changeset": 164013377,
  "user": "CR86",
  "uid": 1879503,
  "tags": {
    "branch": "八重洲一丁目店",
    "brand": "FamilyMart",
    "brand:en": "FamilyMart",
    "brand:ja": "ファミリーマート",
    "brand:wikidata": "Q11247682",
    "brand:wikipedia": "en:FamilyMart",
    "name": "ファミリーマート",
    "name:en": "FamilyMart",
    "name:ja": "ファミリーマート",
    "name:ja_rm": "Famirī Mato",
    "opening_hours": "24/7",
    "phone": "+81 3 5204 0236",
    "shop": "convenience",
    "wheelchair": "limited"
  }
},
{
  "type": "node",
  "id": 2365554362,
  "lat": 35.6813550,
  "lon": 139.7714960,
  "timestamp": "2024-10-08T10:39:42Z",
  "version": 7,
  "changeset": 157619925,
  "user": "vbence",
  "uid": 2457157,
  "tags": {
    "addr:block_number": "3",
    "addr:city": "中央区",
    "addr:housenumber": "18",
    "addr:neighbourhood": "2",
    "addr:postcode": "103-0027",
    "addr:province": "東京都",
    "addr:quarter": "日本橋",
    "brand": "おかしのまちおか",
    "brand:en": "Machioka",
    "brand:ja": "おかしのまちおか",
    "brand:wikidata": "Q117828763",
    "name": "おかしのまちおか",
    "name:en": "Machioka",
    "name:ja": "おかしのまちおか",
    "shop": "confectionery",
    "wheelchair": "limited"
  }
},
{
  "type": "node",
  "id": 2365555224,
  "lat": 35.6812828,
  "lon": 139.7716731,
  "timestamp": "2025-03-24T04:38:33Z",
  "version": 9,
  "changeset": 164013377,
  "user": "CR86",
  "uid": 1879503,
  "tags": {
    "brand": "FamilyMart",
    "brand:en": "FamilyMart",
    "brand:ja": "ファミリーマート",
    "brand:wikidata": "Q11247682",
    "brand:wikipedia": "en:FamilyMart",
    "name": "ファミリーマート",
    "name:en": "FamilyMart",
    "name:ja": "ファミリーマート",
    "shop": "convenience",
    "wheelchair": "yes"
  }
},
{
  "type": "node",
  "id": 2463553445,
  "lat": 35.6804924,
  "lon": 139.7688005,
  "timestamp": "2025-05-23T02:55:43Z",
  "version": 4,
  "changeset": 166635594,
  "user": "gc27",
  "uid": 7130304,
  "tags": {
    "addr:block_number": "7",
    "addr:city": "羽村市",
    "addr:housenumber": "23",
    "addr:neighbourhood": "栄町1丁目",
    "addr:postcode": "205-0002",
    "addr:province": "東京都",
    "fixme": "please put it in proper location (address included)",
    "name": "レアルヘアー",
    "phone": "+81-42-554-6455",
    "shop": "hairdresser",
    "wheelchair": "yes",
    "wheelchair:description": "車いすのかたでも使える美容院。トイレも広い。"
  }
},
{
  "type": "node",
  "id": 3579876681,
  "lat": 35.6806763,
  "lon": 139.7684655,
  "timestamp": "2025-07-07T10:49:38Z",
  "version": 7,
  "changeset": 168598596,
  "user": "gc27",
  "uid": 7130304,
  "tags": {
    "addr:block_number": "9",
    "addr:city": "千代田区",
    "addr:housenumber": "1",
    "addr:neighbourhood": "丸の内一丁目",
    "addr:postcode": "100-0005",
    "addr:province": "東京都",
    "branch": "東京駅グランルーフ店",
    "brand": "NTT docomo",
    "brand:en": "NTT docomo",
    "brand:ja": "NTTドコモ",
    "brand:wikidata": "Q853958",
    "brand:wikipedia": "ja:NTTドコモ",
    "internet_access": "wlan",
    "level": "1",
    "name": "ドコモショップ",
    "name:en": "docomo Shop",
    "name:ja": "ドコモショップ",
    "name:ja_rm": "Dokomo Shoppu",
    "opening_hours": "Mo-Su 10:00-21:00",
    "operator": "NTTドコモ",
    "phone": "+81 3-5221-8886",
    "shop": "mobile_phone",
    "source": "(URL) 2015",
    "website": "https://www.nttdocomo.co.jp/",
    "wheelchair": "yes"
  }
},
{
  "type": "node",
  "id": 3593816993,
  "lat": 35.6809357,
  "lon": 139.7684923,
  "timestamp": "2025-05-23T02:57:25Z",
  "version": 12,
  "changeset": 166635613,
  "user": "gc27",
  "uid": 7130304,
  "tags": {
    "addr:block_number": "9",
    "addr:city": "千代田区",
    "addr:housenumber": "1",
    "addr:neighbourhood": "丸の内1丁目",
    "addr:postcode": "100-0005",
    "addr:province": "東京都",
    "branch": "東京駅グランルーフフロント",
    "brand": "SoftBank",
    "brand:en": "SoftBank",
    "brand:ja": "ソフトバンク",
    "brand:wikidata": "Q2214105",
    "brand:wikipedia": "ja:ソフトバンクショップ",
    "level": "-1",
    "name": "ソフトバンクショップ",
    "name:en": "SoftBank Shop",
    "name:ja": "ソフトバンクショップ",
    "name:ja_rm": "Sofutobanku Shoppu",
    "official_name": "ソフトバンクショップ",
    "official_name:en": "SoftBankShop",
    "official_name:ja": "ソフトバンクショップ",
    "opening_hours": "Mo-Su 10:00-21:00",
    "operator": "ソフトバンク",
    "phone": "+81-3-3284-1170",
    "shop": "mobile_phone",
    "source": "(URL) 2015",
    "website": "https://www.softbank.jp/mobile/",
    "wheelchair": "yes"
  }
},
{
  "type": "node",
  "id": 3756803582,
  "lat": 35.6788149,
  "lon": 139.7676550,
  "timestamp": "2025-07-06T22:33:33Z",
  "version": 11,
  "changeset": 168580797,
  "user": "gc27",
  "uid": 7130304,
  "tags": {
    "addr:block_number": "9",
    "addr:city": "千代田区",
    "addr:housename": "グラントウキョウサウ",
    "addr:housenumber": "2",
    "addr:neighbourhood": "丸の内一丁目",
    "addr:postcode": "100-6633",
    "addr:province": "東京都",
    "atm": "yes",
    "branch": "リクルートサウスタワー",
    "brand": "7-ELEVEN",
    "brand:en": "7-ELEVEN",
    "brand:ja": "セブン-イレブン",
    "brand:wikidata": "Q259340",
    "brand:wikipedia": "en:7-Eleven",
    "internet_access": "no",
    "name": "セブン-イレブン",
    "name:en": "7-Eleven",
    "name:ja": "セブン-イレブン",
    "name:ja_rm": "Sebun Irebun",
    "name:ko": "세븐일레븐",
    "name:zh": "7-Eleven",
    "official_name:en": "Seven-Eleven",
    "operator": "セブンイレブン・ジャパン",
    "phone": "+81 3-3201-1355",
    "shop": "convenience",
    "source": "(URL) 2015",
    "website": "https://www.sej.co.jp/",
    "wheelchair": "yes"
  }
},
{
  "type": "node",
  "id": 3789921336,
  "lat": 35.6789368,
  "lon": 139.7712591,
  "timestamp": "2024-06-25T04:28:40Z",
  "version": 4,
  "changeset": 153137609,
  "user": "wheelmap_visitor",
  "uid": 290680,
  "tags": {
    "craft": "blacksmith",
    "name": "西勘刀 本店",
    "name:en": "Tokyo Nishikan",
    "shop": "houseware",
    "wheelchair": "limited"
  }
},
{
  "type": "node",
  "id": 3789921348,
  "lat": 35.6801773,
  "lon": 139.7719477,
  "timestamp": "2019-06-04T00:52:47Z",
  "version": 3,
  "changeset": 70904168,
  "user": "Mzaki",
  "uid": 9870387,
  "tags": {
    "name": "Shoichiro",
    "shop": "art",
    "tourism": "gallery"
  }
},
{
  "type": "node",
  "id": 3789921350,
  "lat": 35.6789898,
  "lon": 139.7712886,
  "timestamp": "2024-06-25T04:28:07Z",
  "version": 4,
  "changeset": 153137593,
  "user": "wheelmap_visitor",
  "uid": 290680,
  "tags": {
    "name": "千疋屋",
    "name:en": "Sembikiya",
    "shop": "greengrocer",
    "wheelchair": "yes"
  }
},
{
  "type": "node",
  "id": 3789923357,
  "lat": 35.6801602,
  "lon": 139.7719577,
  "timestamp": "2019-06-04T00:52:47Z",
  "version": 3,
  "changeset": 70904168,
  "user": "Mzaki",
  "uid": 9870387,
  "tags": {
    "name": "MASATAKA CONTEMPORARY",
    "shop": "art",
    "tourism": "gallery"
  }
},
{
  "type": "node",
  "id": 4314108090,
  "lat": 35.6813118,
  "lon": 139.7718858,
  "timestamp": "2023-06-11T16:36:57Z",
  "version": 9,
  "changeset": 137211752,
  "user": "penguin_the_dawn",
  "uid": 2929244,
  "tags": {
    "level": "0",
    "name": "富士の国やまなし館",
    "name:en": "Yamanashi Prefecture Shop",
    "shop": "gift",
    "wheelchair": "limited"
  }
},
{
  "type": "node",
  "id": 4646514991,
  "lat": 35.6812599,
  "lon": 139.7688241,
  "timestamp": "2023-11-15T04:55:11Z",
  "version": 11,
  "changeset": 144035067,
  "user": "hangukhistory",
  "uid": 17860844,
  "tags": {
    "addr:block_number": "9",
    "addr:city": "千代田区",
    "addr:housenumber": "1",
    "addr:neighbourhood": "1丁目",
    "addr:postcode": "100-6701",
    "addr:province": "東京都",
    "addr:quarter": "丸の内",
    "name": "大丸",
    "name:en": "Daimaru Tokyo",
    "name:es": "Daimaru Tokyo",
    "name:ja": "大丸東京店",
    "name:ko": "다이마루 도쿄점",
    "name:zh": "大丸東京店",
    "opening_hours": "10:00-20:00; Th,Fr 10:00-21:00",
    "operator": "株式会社大丸松坂屋百貨店",
    "phone": "+81 3 3212 8011",
    "shop": "department_store",
    "toilets:wheelchair": "yes",
    "website": "https://www.daimaru.co.jp/",
    "wheelchair": "yes",
    "wikidata": "Q116909154",
    "wikimedia_commons": "Category:Daimaru Tokyo",
    "wikipedia": "ja:大丸東京店"
  }
},
{
  "type": "node",
  "id": 4697659390,
  "lat": 35.6813593,
  "lon": 139.7668522,
  "timestamp": "2025-02-04T08:05:14Z",
  "version": 5,
  "changeset": 162114120,
  "user": "近場行き",
  "uid": 12272282,
  "tags": {
    "name": "駅弁屋 祭",
    "name:en": "Ekiben-ya Matsuri",
    "name:ja": "駅弁屋 祭",
    "opening_hours": "Mo-Su 05:30-23:00",
    "shop": "convenience",
    "wheelchair": "yes"
  }
},
{
  "type": "node",
  "id": 4766924630,
  "lat": 35.6817790,
  "lon": 139.7685247,
  "timestamp": "2017-03-31T11:51:24Z",
  "version": 2,
  "changeset": 47322690,
  "user": "valpum",
  "uid": 1217726,
  "tags": {
    "name:en": "Donguri garden",
    "opening_hours": "Mo-Su 09:00-20:30",
    "shop": "toys"
  }
},
{
  "type": "node",
  "id": 4982707221,
  "lat": 35.6803498,
  "lon": 139.7692400,
  "timestamp": "2017-07-20T12:41:55Z",
  "version": 1,
  "changeset": 50432372,
  "user": "YangLau",
  "uid": 1775168,
  "tags": {
    "name:en": "Sandog Inn",
    "name:zh": "Sandog Inn 神戸屋",
    "shop": "bakery"
  }
},
{
  "type": "node",
  "id": 5871004550,
  "lat": 35.6781920,
  "lon": 139.7695120,
  "timestamp": "2025-05-24T01:05:20Z",
  "version": 4,
  "changeset": 166678718,
  "user": "wasabi1",
  "uid": 9596730,
  "tags": {
    "check_date": "2025-05-24",
    "level": "0",
    "name": "理容室Honu",
    "name:en": "Honu",
    "shop": "hairdresser",
    "source": "survey",
    "wheelchair": "yes"
  }
},
{
  "type": "node",
  "id": 5896269889,
  "lat": 35.6805218,
  "lon": 139.7680107,
  "timestamp": "2025-05-03T04:36:31Z",
  "version": 6,
  "changeset": 165743364,
  "user": "近場行き",
  "uid": 12272282,
  "tags": {
    "addr:block_number": "9",
    "addr:city": "中央区",
    "addr:country": "JP",
    "addr:housename": "東京駅一番街",
    "addr:housenumber": "1",
    "addr:neighbourhood": "丸の内一丁目",
    "addr:postcode": "100-0005",
    "addr:province": "東京都",
    "branch": "東京駅店",
    "branch:en": "Tokyo Station",
    "brand": "ジャンプショップ",
    "brand:en": "Jump Shop",
    "brand:ja": "ジャンプショップ",
    "brand:wikidata": "Q11310200",
    "brand:wikipedia": "ja:ジャンプショップ",
    "level": "-1",
    "name": "ジャンプショップ",
    "name:en": "Jump Shop",
    "name:ja": "ジャンプショップ",
    "opening_hours": "10:00-20:30",
    "operator": "Shueisha",
    "phone": "03-3215-0123",
    "shop": "hobby",
    "shop:anime": "yes",
    "shop:comic_goods": "yes",
    "shop:manga": "yes",
    "website": "http://www.shonenjump.com/j/jumpshop/store.html"
  }
},
{
  "type": "node",
  "id": 5899710104,
  "lat": 35.6813502,
  "lon": 139.7683600,
  "timestamp": "2025-05-05T21:53:22Z",
  "version": 3,
  "changeset": 165866154,
  "user": "tartiflex",
  "uid": 507417,
  "tags": {
    "addr:block_number": "9",
    "addr:country": "JP",
    "addr:housename": "東京駅一番街",
    "addr:housenumber": "1",
    "addr:neighbourhood": "丸の内1",
    "addr:province": "東京都",
    "addr:suburb": "千代田区",
    "branch": "東京店",
    "branch:en": "Tokyo",
    "brand": "トミカ",
    "brand:en": "Tomica",
    "brand:wikidata": "Q935432",
    "contact:phone": "+81 3-5220-1351",
    "contact:website": "https://www.takaratomy.co.jp/products/tomicashop/shop/index.htm",
    "level": "-1",
    "name": "トミカ",
    "name:en": "Tomica",
    "name:fr": "Tomica",
    "name:ja-Latn": "Tomika",
    "official_name": "トミカショップ 東京キャラクターストリート店",
    "official_name:en": "Tomica Shop Tokyo Character Street",
    "official_name:fr": "Tomica Tokyo Character Street",
    "official_name:ja-Latn": "Tomika shoppu Tōkyō kyarakutāsutorīto-ten",
    "opening_hours": "Mo-Su 10:00-20:30",
    "shop": "toys",
    "wheelchair": "yes"
  }
},
{
  "type": "node",
  "id": 7196596448,
  "lat": 35.6773244,
  "lon": 139.7702242,
  "timestamp": "2024-06-25T04:33:54Z",
  "version": 3,
  "changeset": 153137770,
  "user": "wheelmap_visitor",
  "uid": 290680,
  "tags": {
    "level": "0",
    "name": "明治屋",
    "name:en": "Meidi-Ya",
    "name:ja": "明治屋",
    "opening_hours": "Mo-Sa 10:00-21:00;Su,PH 10:00-20:00",
    "shop": "supermarket",
    "website": "https://meidi-ya-store.com/",
    "wheelchair": "yes"
  }
},
{
  "type": "node",
  "id": 8010456801,
  "lat": 35.6815742,
  "lon": 139.7701048,
  "timestamp": "2025-05-24T07:31:41Z",
  "version": 2,
  "changeset": 166683665,
  "user": "wasabi1",
  "uid": 9596730,
  "tags": {
    "branch": "東京駅前店",
    "check_date": "2025-05-24",
    "level": "0",
    "name": "チケット大黒屋",
    "phone": "+81 3 3278 3081",
    "shop": "ticket"
  }
},
{
  "type": "node",
  "id": 9084900652,
  "lat": 35.6787538,
  "lon": 139.7673074,
  "timestamp": "2025-01-13T06:53:24Z",
  "version": 4,
  "changeset": 161297277,
  "user": "setokynet",
  "uid": 21931672,
  "tags": {
    "brand": "FamilyMart",
    "brand:en": "FamilyMart",
    "brand:ja": "ファミリーマート",
    "brand:wikidata": "Q11247682",
    "brand:wikipedia": "ja:ファミリーマート",
    "level": "-1",
    "name": "ファミリーマート",
    "name:en": "FamilyMart",
    "name:ja": "ファミリーマート",
    "shop": "convenience",
    "wheelchair": "yes"
  }
},
{
  "type": "node",
  "id": 9633684729,
  "lat": 35.6799791,
  "lon": 139.7678471,
  "timestamp": "2025-05-03T04:36:31Z",
  "version": 4,
  "changeset": 165743364,
  "user": "近場行き",
  "uid": 12272282,
  "tags": {
    "addr:block_number": "9",
    "addr:city": "千代田区",
    "addr:housenumber": "1",
    "addr:neighbourhood": "丸の内一丁目",
    "addr:postcode": "100-0005",
    "addr:province": "東京都",
    "branch": "八重洲南",
    "name": "ベルマートキヨスク",
    "name:en": "Bellmart Kiosk",
    "phone": "+81 3 3281 6388",
    "shop": "convenience",
    "wheelchair": "yes"
  }
},
{
  "type": "node",
  "id": 10312480391,
  "lat": 35.6808580,
  "lon": 139.7683695,
  "timestamp": "2025-06-27T09:33:15Z",
  "version": 5,
  "changeset": 168176150,
  "user": "gc27",
  "uid": 7130304,
  "tags": {
    "addr:block_number": "9",
    "addr:city": "千代田区",
    "addr:housenumber": "1",
    "addr:neighbourhood": "丸の内一丁目",
    "addr:postcode": "100-0005",
    "addr:province": "東京都",
    "branch": "東京店",
    "contact:twitter": "pps_as",
    "level": "-1",
    "name": "プリキュア プリティストア",
    "name:en": "Precure Pretty Store",
    "name:ja": "プリキュア プリティストア",
    "opening_hours": "10:00-20:30",
    "phone": "+81-3-6551-2550",
    "shop": "hobby",
    "shop:anime": "yes",
    "website": "https://www.toei-anim.co.jp/ptr/precure/"
  }
},
{
  "type": "node",
  "id": 10538350884,
  "lat": 35.6809600,
  "lon": 139.7718411,
  "timestamp": "2024-06-25T04:22:02Z",
  "version": 2,
  "changeset": 153137365,
  "user": "wheelmap_visitor",
  "uid": 290680,
  "tags": {
    "check_date": "2023-01-11",
    "name": "リーガルファクトリーストア",
    "opening_hours": "11:00-20:00",
    "shop": "shoes",
    "wheelchair": "yes"
  }
},
{
  "type": "node",
  "id": 10538350886,
  "lat": 35.6809595,
  "lon": 139.7717205,
  "timestamp": "2024-06-25T04:19:57Z",
  "version": 2,
  "changeset": 153137304,
  "user": "wheelmap_visitor",
  "uid": 290680,
  "tags": {
    "addr:floor": "6",
    "check_date": "2023-01-11",
    "name": "フェアクリニック東京",
    "shop": "beauty",
    "wheelchair": "no"
  }
},
{
  "type": "node",
  "id": 11370968865,
  "lat": 35.6807120,
  "lon": 139.7684915,
  "timestamp": "2025-01-13T06:53:24Z",
  "version": 2,
  "changeset": 161297277,
  "user": "setokynet",
  "uid": 21931672,
  "tags": {
    "branch": "東京駅一番街店",
    "brand": "成城石井",
    "brand:en": "Seijo Ishii",
    "brand:ja": "成城石井",
    "brand:wikidata": "Q11495410",
    "name": "成城石井",
    "name:en": "Seijo Ishii",
    "name:ja": "成城石井",
    "opening_hours": "08:00-22:00",
    "phone": "+81 3 6275 6066",
    "shop": "supermarket"
  }
},
{
  "type": "node",
  "id": 11402503824,
  "lat": 35.6814125,
  "lon": 139.7687079,
  "timestamp": "2023-12-08T06:43:58Z",
  "version": 1,
  "changeset": 144889600,
  "user": "市川ゆり子",
  "uid": 388809,
  "tags": {
    "branch": "大丸東京店",
    "layer": "10",
    "name": "石井スポーツ",
    "name:en": "Ishii Sports",
    "payment:cash": "yes",
    "payment:credit_cards": "yes",
    "payment:debit_cards": "yes",
    "payment:visa": "yes",
    "payment:visa_debit": "yes",
    "phone": "+81 3 5220 3580",
    "shop": "outdoor"
  }
},
{
  "type": "node",
  "id": 11562658181,
  "lat": 35.6813884,
  "lon": 139.7699964,
  "timestamp": "2025-05-24T07:31:41Z",
  "version": 3,
  "changeset": 166683665,
  "user": "wasabi1",
  "uid": 9596730,
  "tags": {
    "check_date": "2025-05-24",
    "name": "なんぼや",
    "shop": "pawnbroker",
    "wheelchair": "yes"
  }
},
{
  "type": "node",
  "id": 11562658182,
  "lat": 35.6817758,
  "lon": 139.7715349,
  "timestamp": "2024-06-25T04:28:25Z",
  "version": 2,
  "changeset": 153137601,
  "user": "wheelmap_visitor",
  "uid": 290680,
  "tags": {
    "check_date": "2024-01-29",
    "level": "0",
    "name": "MATSUNAGA",
    "shop": "hairdresser",
    "wheelchair": "no"
  }
},
{
  "type": "node",
  "id": 11861292769,
  "lat": 35.6817801,
  "lon": 139.7687029,
  "timestamp": "2024-04-28T02:48:39Z",
  "version": 1,
  "changeset": 150602321,
  "user": "Enrique_Val",
  "uid": 21325329,
  "tags": {
    "name": "パパブブレ",
    "name:en": "Papabubble",
    "shop": "confectionery"
  }
},
{
  "type": "node",
  "id": 12066715325,
  "lat": 35.6773567,
  "lon": 139.7706829,
  "timestamp": "2024-07-21T18:32:44Z",
  "version": 1,
  "changeset": 154232070,
  "user": "fūrai-bō_",
  "uid": 18107010,
  "tags": {
    "branch": "DR東京京橋ロイネット店",
    "brand": "7-ELEVEN",
    "brand:en": "7-ELEVEN",
    "brand:ja": "セブン-イレブン",
    "brand:wikidata": "Q259340",
    "brand:wikipedia": "ja:セブン-イレブン",
    "name": "セブン-イレブン",
    "name:en": "7-Eleven",
    "name:ja": "セブン-イレブン",
    "name:ja_rm": "Sebun Irebun",
    "name:ko": "세븐일레븐",
    "official_name:en": "Seven-Eleven",
    "operator": "株式会社セブン&アイ・ホールディングス",
    "operator:en": "Seven & I Holdings Co., Ltd.",
    "operator:wikidata": "Q639447",
    "operator:wikipedia": "ja:セブン&アイ・ホールディングス",
    "shop": "convenience",
    "start_date": "2020-02-01"
  }
},
{
  "type": "node",
  "id": 12322800157,
  "lat": 35.6810755,
  "lon": 139.7713667,
  "timestamp": "2025-03-24T04:38:33Z",
  "version": 3,
  "changeset": 164013377,
  "user": "CR86",
  "uid": 1879503,
  "tags": {
    "brand": "つるや",
    "brand:en": "Tsuruya",
    "brand:ja": "つるや",
    "brand:wikidata": "Q11272578",
    "check_date": "2024-11-08",
    "name": "つるや",
    "name:en": "Tsuruya",
    "name:ja": "つるや",
    "shop": "shoes",
    "wheelchair": "no"
  }
},
{
  "type": "node",
  "id": 12322800165,
  "lat": 35.6808297,
  "lon": 139.7714346,
  "timestamp": "2024-12-05T06:59:00Z",
  "version": 2,
  "changeset": 159944569,
  "user": "wheelmap_visitor",
  "uid": 290680,
  "tags": {
    "check_date": "2024-11-08",
    "level": "1",
    "name": "HIRO GINZA",
    "shop": "hairdresser",
    "wheelchair": "no"
  }
},
{
  "type": "node",
  "id": 12411958869,
  "lat": 35.6801579,
  "lon": 139.7715609,
  "timestamp": "2024-12-11T10:28:57Z",
  "version": 1,
  "changeset": 160162741,
  "user": "Biebie_matsu",
  "uid": 287045,
  "tags": {
    "check_date": "2024-12-11",
    "name": "Matsunaga",
    "shop": "hairdresser"
  }
},
{
  "type": "node",
  "id": 12497563830,
  "lat": 35.6805416,
  "lon": 139.7686833,
  "timestamp": "2025-01-13T06:53:24Z",
  "version": 1,
  "changeset": 161297277,
  "user": "setokynet",
  "uid": 21931672,
  "tags": {
    "name": "八重洲地下街",
    "official_name": "ヤエチカ",
    "shop": "mall",
    "website": "https://www.yaechika.com/",
    "wikidata": "Q10892516",
    "wikipedia": "ja:八重洲地下街"
  }
},
{
  "type": "node",
  "id": 12579184563,
  "lat": 35.6818735,
  "lon": 139.7674377,
  "timestamp": "2025-02-24T12:41:14Z",
  "version": 2,
  "changeset": 162891063,
  "user": "近場行き",
  "uid": 12272282,
  "tags": {
    "brand": "みどりの窓口",
    "brand:en": "Midori-no-madoguchi",
    "brand:ja": "みどりの窓口",
    "brand:wikidata": "Q11279064",
    "name": "みどりの窓口",
    "name:en": "JR Ticket Office",
    "name:ja": "みどりの窓口",
    "note": "改札内",
    "shop": "ticket"
  }
},
{
  "type": "node",
  "id": 12712686943,
  "lat": 35.6816247,
  "lon": 139.7690155,
  "timestamp": "2025-03-30T07:45:11Z",
  "version": 1,
  "changeset": 164276086,
  "user": "lasvirt",
  "uid": 22679614,
  "tags": {
    "name": "Kamakura Toshimaya Daimaru",
    "shop": "confectionery"
  }
},
{
  "type": "node",
  "id": 12859912148,
  "lat": 35.6772368,
  "lon": 139.7706209,
  "timestamp": "2025-05-24T01:05:20Z",
  "version": 1,
  "changeset": 166678718,
  "user": "wasabi1",
  "uid": 9596730,
  "tags": {
    "brand": "宝くじ",
    "brand:en": "Takarakuji",
    "brand:ja": "宝くじ",
    "brand:wikidata": "Q87824893",
    "name": "宝くじ",
    "name:en": "Takarakuji",
    "name:ja": "宝くじ",
    "official_name": "全国自治宝くじ",
    "official_name:en": "National Autonomous Lottery",
    "official_name:ja": "全国自治宝くじ",
    "shop": "lottery"
  }
},
{
  "type": "node",
  "id": 12883566901,
  "lat": 35.6793517,
  "lon": 139.7689189,
  "timestamp": "2025-06-03T13:44:46Z",
  "version": 1,
  "changeset": 167136459,
  "user": "nikuya",
  "uid": 17062406,
  "tags": {
    "contact:instagram": "citybakery_yaesu",
    "name": "THE CITY BAKERY 東京ミッドタウン八重洲",
    "opening_hours": "Mo-Su 07:30-21:00",
    "phone": "+81335279438",
    "shop": "bakery",
    "website": "https://thecitybakery.jp/shop/article1037"
  }
},
{
  "type": "node",
  "id": 12883567201,
  "lat": 35.6784655,
  "lon": 139.7716147,
  "timestamp": "2025-06-03T13:44:48Z",
  "version": 1,
  "changeset": 167136459,
  "user": "nikuya",
  "uid": 17062406,
  "tags": {
    "contact:instagram": "tokyo8min",
    "name": "THE CITY BAKERY 京橋トダビルディング",
    "opening_hours": "Mo-Su 08:00-19:00",
    "phone": "+81362644820",
    "shop": "bakery",
    "website": "https://thecitybakery.jp/shop/article2229"
  }
}

  ]
}
